Id,Label,timeset,interval,name,type,street,city,st,zip,phone,latitude,longitude,background_map_node,lat,lng
2,Independent,,,Bisbee Food Co-opcoop,0,72 Erie Street,Bisbee,AZ,85603,(520) 432-4011,31.430757,-109.894566,,,
3,Independent,,,Sierra Vista Food Cooperative coop,0,96 South Carmichael Ave,Sierra Vista,AZ,85635,(520) 335-6676,31.552385,-110.299917,,,
4,Independent,,,Summercorn Foods,0,1410 Cato Springs Road,Fayetteville,AR,72701,(501) 521-9338,36.041714,-94.18136,,,
5,Independent,,,Arroyo Food Coopcoop,0,494 N. Wilson Ave.,Pasadena,CA,91106,(626) 568-2799,34.154548,-118.127946,,,
6,Independent,,,Bolinas Peoples Store,0,P. O. Box 808,Bolinas,CA,94924,(415) 868-1433,37.94134,-122.718263,,,
7,Independent,,,Caju Food Coopcoop,0,1895 W Commonwealth Ave. #B,Fullerton,CA,92833,(714) 773-4984,33.870087,-117.962942,,,
8,Independent,,,Corners of the Mouth Natural Foods,0,45015 Ukiah Street PO Box 367,Mendocino,CA,95460,(707) 937-5345,39.30596,-123.799242,,,
9,Independent,,,Kresge Food Co-op,0,"600 Kresge CT, Kresge College UCSC",Santa Cruz,CA,95064,(831) 426-1506,36.99737,-122.067054,,,
10,Independent,,,Other Avenues Community Food Store,0,3930 Judah Street,San Francisco,CA,94122,(415) 661-7475,37.760742,-122.504339,,,
11,Independent,,,Placerville Natural Food Co-opcoop,0,535 Placerville Drive,Placerville,CA,95667,(530) 621-3663,38.733469,-120.826114,,,
12,Independent,,,Rainbow Grocery Co-opcoop,0,1745 Folsom Street,San Francisco,CA,94103,(415) 863-0620,37.769109,-122.415058,,,
13,Independent,,,Santa Rosa Community Market & Café,0,1899 Mendocino Avenue,Santa Rosa,CA,95401,(707) 546-1806,38.458838,-122.717442,,,
14,Independent,,,The Cooperative Grocery (The CoG),0,1450 67th Street,Emeryville,CA,95616,(510) 868-2883,37.848666,-122.293618,,,
15,Independent,,,The Food Coop,0,"0323F Student Cooperative Center,",San Diego,CA,92093,(619) 546-8339,32.877058,-117.230578,,,
16,Independent,,,All Things Homestead,0,(mailing) PO Box 1745,Castle Rock,CO,80104,(303) 578-6430,39.302168,-104.817963,,,
17,Independent,,,Boulder Co-op Market,0,1904 Pearl Street,Boulder,CO,80302,(303) 447-2667,40.019537,-105.270333,,,
18,Independent,,,Comida Marketcoop,0,131 E Main St,Trinidad,CO,81082,(719) 846-7869,38.477973,-107.879394,,,
19,Independent,,,Durango Natural Foods,0,575 E 8th Avenue,Durango,CO,81301,(970) 257-8129,37.268015,-107.872515,,,
20,Independent,,,Fort Collins Food Co-op,0,250 East Mountain Avenue,Fort Collins,CO,80524,(970) 484-7448,40.587423,-105.075092,,,
21,Independent,,,High Plains Food Coop,0,"5655 S. Yosemite St., Suite 400",Greenwoods Village,CO,80111,(785) 626-3640,39.615116,-104.886582,,,
22,Independent,,,Huajatollas Food Co-op,0,106 County Road 632,Gardner,CO,81040,(719) 746-2314,37.78546,-105.230774,,,
23,Independent,,,Mountain People's Co-op,0,30 E. First St PO Box 161,Nederland,CO,80466,(303) 258-7500,39.961692,-105.509748,,,
24,Independent,,,Rainbow Gardens Co-op,0,655 Tabernash Drive,Ridgeway,CO,81432,(970) 626-9720,38.14626,-107.758147,,,
25,Independent,,,SDA Coop,0,106 Division Avenue,Sterling,CO,80751,(970) 265-2642,40.624506,-103.211602,,,
26,Independent,,,Valley Food Co-opcoop,0,3211 Main Street St. G,Alamosa,CO,81101,(719) 589-5727,37.483691,-105.829953,,,
27,Independent,,,Wholistic Food Options,0,231 Salem Turnpike,Norwich,CT,6360,(860) 848-7199,41.507432,-72.124181,,,
28,Independent,,,Bread and Roses Food Cooperativecoop,0,915-2 Railroad Avenue,Tallahassee,FL,32301,(850) 425-8486,30.433991,-84.289426,,,
29,Independent,,,Citizens Co-opcoop,0,435 So. Main St.,Gainesville,FL,32601,(352) 505-6575,29.647329,-82.324835,,,
30,Independent,,,Essentials For Life,0,2106 Flora Avenue,Ft. Myers,FL,33907,(239) 939-2529,26.558691,-81.869997,,,
31,Independent,,,Gregg L. Friedman MD Organic Coopcoop,0,"2500 East Hallandale Beach Blvd, Suite 702",Hallandale Beach,FL,33009,(954) 456-1996,25.985675,-80.124292,,,
32,Independent,,,Homegrown Local Food Cooperative,0,2310 N Orange Ave,Orlando,FL,32804,(407) 895-5559,28.572603,-81.373028,,,
33,Independent,,,Jumplight Farms,0,9219 Lantern Drive,Lake Worth,FL,33467,(561) 427-7296,26.606195,-80.193196,,,
34,Independent,,,Kissimmee Organic Co-op,0,4830 Lake Cecile Drive,Kissimmee,FL,34746,(407) 870-9839,28.32357,-81.476067,,,
35,Independent,,,Little River Co-op,0,3218 Palmetto Rd.,Wimauma,FL,33598,(702) 995-1092,27.65683,-82.365934,,,
36,Independent,,,Seminole Natural Foods,0,1550 Warwick Place,Longwood,FL,32750,(407) 699-1883,28.692643,-81.376306,,,
37,Independent,,,"Sunseed Food Co-op, Inc.",0,6615 N. Atlantic Avenue,Cape Canaveral,FL,32920,(321) 784-0930,28.377516,-80.606024,,,
38,Independent,,,West Orlando Healthy Families,0,6813 Hyland Oaks Rd.,Orlando,FL,32818,(407) 522-9548,28.600927,-81.47719,,,
39,Independent,,,Southern Mountain Livin @ Mountain View Farmcoop,0,189 John Abernathy Rd,Blairsville,GA,30512,(706) 897-3396,34.855964,-83.970959,,,
41,Independent,,,Pocatello Co-opcoop,0,515 N. Main St,Pocatello,ID,83204,(208) 232-2181,42.865172,-112.454292,,,
42,Independent,,,South Suburban Food Co-opcoop,0,208 Forest Blvd,Park Forest,IL,60466,(708) 747-2256,41.485618,-87.678709,,,
43,Independent,,,Straddle Creek Food Co-op,0,112 Market Street - West,Mt. Carroll,IL,61053,(815) 244-2667,42.10124,-89.979006,,,
44,Independent,,,Bloomingfoods Downtown,0,419 East Kirkwood Avenue,Bloomington,IN,47408,(812) 336-5300,39.166635,-86.529515,,,
45,Independent,,,City Foods Co-opcoop,0,632 Main St,Lafayette,IN,47901,(765) 414-1136,40.419309,-86.889675,,,
46,Independent,,,Clear Creek Food Co-op,0,"701 West National Road, Earlham",Richmond,IN,47374,(765) 983-1547,39.825618,-84.919306,,,
47,Independent,,,Lost River Market & Delicoop,0,26 Library Street,Paoli,IN,47454,(812) 723-3735,38.556842,-86.467339,,,
48,Independent,,,Pogue's Run Grocercoop,0,2828 E. 10th St.,Indianapolis,IN,0,(317) 426-4963,39.781436,-86.115617,,,
49,Independent,,,Purple Porch Co-op,0,123 N. Hill St,South Bend,IN,46624,(574) 274-9889,41.676606,-86.242951,,,
50,Independent,,,River City Food Co-op,0,116 Washington,Evansville,IN,47713,(812) 423-1183,37.963219,-87.563222,,,
51,Independent,,,Terre Foods Cooperative Marketcoop startup,0,PO Box 9254,Terre Haute,IN,47808,(812) 201-7910,39.512735,-87.351994,,,
52,Independent,,,Dubuque Food Co-opcoop,0,955 Washington Street #107,Dubuque,IA,52001,(563) 557-4400,42.503542,-90.662975,,,
53,Independent,,,Iowa Food Cooperative,0,3800 Merle Hay Road #1215,Des Moines,IA,50310,(515) 978-1034,41.63005,-93.699963,,,
54,Independent,,,Amazing Grains,0,901 Mississippi,Lawrence,KS,66044,(785) 841-5510,38.967225,-95.244379,,,
55,Independent,,,People's Grocery Co-Opcoop,0,1620 Fort Riley Blvd #101,Manhattan,KS,66213,(785) 539-4811,39.174663,-96.582545,,,
56,Independent,,,Prairieland Market,0,138 S. 4th,Salinas,KS,67401,(785) 827-5877,38.839108,-97.606821,,,
57,Independent,,,Topeka Natural Food Coop,0,503 SW Washburn Ave,Topeka,KS,66606,(785) 235-2309,39.058346,-95.69262,,,
58,Independent,,,"Otherworld Food Co-op, Inc.",0,1865 Celina Road,Burkesville,KY,42717,(270) 433-7400,36.7543,-85.370848,,,
59,Independent,,,New Orleans Food Co-opcoop,0,2372 St. Claude Avenue St. 110,New Orleans,LA,70117,(504) 264-5579,29.968728,-90.052634,,,
60,Independent,,,Barrels Community Marketcoop,0,74 Main St,Waterville,ME,4901,(207) 660-4844,44.549634,-69.630106,,,
61,Independent,,,Eat Local Eastport Co-op,0,49 Water St,Eastport,ME,4631,(207) 853-7138,44.90417,-66.984214,,,
62,Independent,,,Fare Share Market,0,443 Main Street,Norway,ME,4268,(207) 743-9044,44.213914,-70.543116,,,
63,Independent,,,Gardiner Food Co-op & Cafécoop,0,Water St.,Gardiner,ME,4345,(207) 485-0175,44.198225,-69.784811,,,
64,Independent,,,Good Tern Natural Foods Co-op,0,750 S. Main Street,Rockland,ME,4841,(207) 594-8822,44.112143,-69.106719,,,
65,Independent,,,Market Street Co-Opcoop,0,26 Market Street,Fort Kent,ME,4743,(207) 231-5065,47.256802,-68.58779,,,
66,Independent,,,Oxford Hills Food Cooperative,0,35 Cottage Street,Norway,ME,4268,(207) 743-8049,44.215737,-70.540134,,,
67,Independent,,,Bethesda Co-op,0,6500 Seven Locks Road,Cabin John,MD,20818,(301) 320-2531,38.975282,-77.162229,,,
68,Independent,,,Glut Food Co-op,0,4005 34th Street,Mt. Rainier,MD,20712,(301) 779-1978,38.938293,-76.960657,,,
69,Independent,,,Greenbelt Consumer Cooperative,0,121 Centerway,Greenbelt,MD,20770,(301) 474-0522,39.000498,-76.877197,,,
70,Independent,,,Maryland Food Co-op,0,B-0203 Stamp Student Union Univ,College Park,MD,20742,(301) 314-8089,38.98963,-76.94569,,,
71,Independent,,,Takoma Park Silver Spring Coop,0,8309 Grubb Road,Silver Spring,MD,20910,(240) 247-2667,38.992713,-77.049071,,,
72,Independent,,,Valley Co-op of Washington Countycoop,0,19946A National Pike,Hagerstown,MD,21740,(240) 329-2395,39.59298,-77.677821,,,
73,Independent,,,Westminster Consumers Coop,0,28 Westminster Shopping Center,Westminster,MD,21157,(410) 848-3200,39.577723,-77.001784,,,
74,Independent,,,Farmer Dave's,0,437 Parker Road,Dracut,MA,1826,(978) 349-1952,42.679693,-71.264229,,,
75,Independent,,,Leverett Village Co-op,0,180 Rattlesnake Gutter Road,Leverett,MA,1054,(413) 367-9794,42.492642,-72.472991,,,
76,Independent,,,Mixed Nuts,0,Hampshire College 893 W Street,Amherst,MA,1002,(413) 549-4600,42.374897,-72.462083,,,
77,Independent,,,People's Market,0,Student Union Rm 328 Univ Mass,Amherst,MA,1003,(413) 545-2060,42.391907,-72.524759,,,
78,Independent,,,River Valley Market,0,P.O. Box 1245,Northampton,MA,1061,(802) 722-4212,42.323341,-72.690352,,,
79,Independent,,,Wachusett  Food Co-op,0,21 Avery Heights Drive Box 205,Holden,MA,1520,(508) 829-4797,42.344248,-71.867337,,,
80,Independent,,,Cass Corridor Food Co-op,0,456 Charlotte Street,Detroit,MI,48201,(313) 831-7452,42.343107,-83.060427,,,
81,Independent,,,East Lansing Food Co-op,0,4960 Northwind,East Lansing,MI,48823,(517) 337-1266,42.727056,-84.455076,,,
82,Independent,,,Hartland's Nutrition Connection Cooperative,0,"1898 Korte Street, PO Box 530",Hartland,MI,48353,(810) 632-7952,42.632009,-83.733645,,,
83,Independent,,,Hillsdale Family Food Co-op,0,31 N. Broad,Hillsdale,MI,49242,(517) 439-1397,41.920928,-84.630995,,,
84,Independent,,,Northwind Natural Foods Co-opcoop,0,116 S. Suffolk Street,Ironwood,MI,49938,(906) 932-3547,46.454756,-90.168496,,,
85,Independent,,,Organic Buying Club Metro Detroit,0,16704 15 Mile Road,Fraser,MI,48026,(866) 602-3848,42.553429,-82.951794,,,
86,Independent,,,People's Food Co-op & Café Verde,0,214-216 N. 4th Avenue,Ann Arbor,MI,48104,(734) 994-9174,42.282911,-83.747082,,,
87,Independent,,,People's Food Co-op of Kalamazoo,0,436 Burdick St. South,Kalamazoo,MI,49007,(616) 342-5686,42.288263,-85.583161,,,
88,Independent,,,Rainbow Health Foods,0,66783 Gratiot Avenue,Richmond,MI,48062,(810) 727-5475,42.790909,-82.73951,,,
89,Independent,,,West Michigan Co-op,0,1111 Godfrey SW,Grand Rapids,MI,49503,(616) 248-0760,42.943228,-85.68476,,,
90,Independent,,,Woodland Food Co-op,0,116 N. Main Street,Woodland,MI,48897,(616) 367-4188,42.727359,-85.134102,,,
91,Independent,,,Countryside Co-op,0,P.O.Box 262 Hwy 371 South,Hackensack,MN,56452,(218) 675-6865,46.947274,-94.46366,,,
92,Independent,,,Crow Wing Food Co-op,0,823 Washington Street,Brainerd,MN,56401,(218) 828-4600,46.358235,-94.196236,,,
93,Independent,,,Everybody's Healthfood Market,0,11 1st Street N.,Long Prairie,MN,56347,(320) 732-3900,45.974492,-94.864107,,,
94,Independent,,,Finland Cooperative,0,Box E Main Street,Finland,MN,55603,(218) 353-7389,47.558401,-91.263934,,,
95,Independent,,,Good Earth Food Co-op,0,2010 8th Street N Centennial Plaza,St. Cloud,MN,56303,(612) 253-9290,45.574373,-94.211674,,,
96,Independent,,,Granary Food Co-opcoop,0,225 2nd Street NW,Ortonville,MN,56278,(320) 839-6204,45.3058,-96.446157,,,
97,Independent,,,GrassRoots Cooperative and Cafecoop,0,1917 2nd Ave S,Anoka,MN,55303,(763) 427-4340,45.197292,-93.389645,,,
98,Independent,,,Harvest Food Co-op,0,137 East Front Street,Owatonna,MN,55060,(507) 451-0340,44.089438,-93.224387,,,
99,Independent,,,Ideal Green Market Cooperativecoop,0,34988 County Rd 39,Pequot Lakes,MN,56472,(218) 543-6565,46.660378,-94.198372,,,
100,Independent,,,Kandi Cupboard,0,412 Litchfield Avenue SW,Willmar,MN,56201,(320) 235-9477,45.121491,-95.04876,,,
101,Independent,,,Linden Hills Natural Home,0,2822 West 43rd Street,Minneapolis,MN,55410,(612) 279-2479,44.924957,-93.315651,,,
102,Independent,,,Mille Lacs Area Food Co-op,0,Main Street,Isle,MN,56342,(320) 676-3813,46.181311,-93.408133,,,
103,Independent,,,Minnesota Street Marketcoop,0,27 West Minnesota Street,Saint Joseph,MN,56374,(320) 363-7733,45.564469,-94.319549,,,
104,Independent,,,Mississippi Market Natural Foods Co-opcoop,0,740 7th Street,East St. Paul,MN,55106,(651) 495-5602,44.959316,-93.070089,,,
105,Independent,,,Natural Foods Co-op/Market,0,230 N. Sibley Ave,Litchfield,MN,55355,(320) 693-7539,45.098635,-94.53992,,,
106,Independent,,,North County Cooperative Grocery,0,1929 S 5th,Minneapolis,MN,55454,(612) 338-3110,44.968634,-93.244436,,,
107,Independent,,,Oak Center General Store Food Co-op,0,Rt. 1 Box 52BB / Highway 63,Lake City,MN,55041,(507) 753-2080,44.39403,-92.320227,,,
108,Independent,,,Plum Creek Food Co-op,0,910 4th Avenue,Windom,MN,56101,(507) 831-1882,43.865539,-95.117799,,,
109,Independent,,,Pomme De Terre Food Co-op,0,613 Atlantic Avenue,Morris,MN,56267,(320) 589-4332,45.587712,-95.915864,,,
110,Independent,,,Rainbow Food Co-op,0,103 South Main St,Blue Earth,MN,56013,(507) 526-3603,43.638349,-94.102396,,,
111,Independent,,,Riverbend Market Cooperative,0,417 Main St,Red Wing,MN,55066,(651) 267-2442,44.565059,-92.536153,,,
112,Independent,,,Wintergreen Food Coop,0,1414 West Main Street,Albert Lea,MN,56007,(507) 373-0386,43.646791,-93.39001,,,
113,Independent,,,"Rainbow Whole Foods Co-op Grocery, Deli and Café",0,2807 Old Canton Road,Jackson,MS,39216,(601) 366-1602,32.333918,-90.174659,,,
114,Independent,,,Good Earth Market,0,3115 10th Avenue N,Billings,MT,59101,(406) 259-2622,45.788491,-108.518482,,,
115,Independent,,,Good Food Store,0,920 Kensington,Missoula,MT,59802,(406) 728-5823,46.853611,-114.012592,,,
116,Independent,,,"Affiliated Food Co-op, Inc.",0,13th Street & Omaha Avenue,Norfolk,NE,68701,(402) 371-0555,42.02137,-97.443619,,,
117,Independent,,,Winnetoon Mall Co-op,0,312 W. Main Street,Winnetoon,NE,68789,(402) 847-3368,42.513166,-97.961002,,,
118,Independent,,,14 Carrots Natural Foods Co-op,0,277 Newport Rd,New London,NH,3257,(603) 526-2323,43.42284,-72.002232,,,
119,Independent,,,Hanover Co-op: Lebanon,0,Centerra Resource Park Route 120,Lebanon,NH,3766,(603) 643-4889,43.63466,-72.237199,,,
120,Independent,,,George Street Co-op,0,89 Morris Street,New Brunswick,NJ,8901,(732) 247-8280,40.491768,-74.445003,,,
121,Independent,,,In Good Taste,0,1301 N Delsea Drive,Vineland,NJ,8360,(609) 794-4856,39.505767,-75.041498,,,
122,Independent,,,Jersey City Food Co-Operative,0,440 Hoboken Avenue,Jersey City,NJ,7306,(201) 500-JCFC,40.734523,-74.05766,,,
123,Independent,,,Purple Dragon Co-op,0,289 Washington Street,Glen Ridge,NJ,7028,(973) 429-0391,40.794811,-74.208555,,,
124,Independent,,,Sussex County Food  Co-op,0,30 Moran Street,Newton,NJ,7860,(973) 579-1882,41.058911,-74.750264,,,
125,Independent,,,Mountain View Marketcoop,0,"1300 El Paseo Road South, Suite M",Las Cruces,NM,88001,(505) 523-0436,32.297043,-106.771761,,,
126,Independent,,,Chatham Real Food Market Co-opcoop,0,15 Church Street (Route 203),Chatham,NY,12037,(518) 392-3353,42.356902,-73.601922,,,
127,Independent,,,Community Co-op,0,589 E. Albany Street,Little Falls,NY,13365,(315) 823-0686,43.0436,-74.8558,,,
128,Independent,,,Esperance Co-op,0,Box 204 Rd #1,Pattersonville,NY,12066,(518) 864-5506,42.78056,-74.310531,,,
129,Independent,,,Food Finder's,0,PO Box 177,Pawling,NY,12564,(845) 855-3467,41.577498,-73.586769,,,
130,Independent,,,Good Cheap Food,0,53 Main Street,Delhi,NY,13753,(607) 746-6562,42.2753,-74.9191,,,
131,Independent,,,High Falls Food Coop,0,1398 State Road 213,High Falls,NY,12440,(845) 687-7262,41.8298,-74.135131,,,
132,Independent,,,Lexington Co-operative Market,0,807 Elmwood Avenue,Buffalo,NY,14222,(716) 886-2667,42.9193,-78.8768,,,
133,Independent,,,Light Foods Co-op,0,73 Church Street,Malverne,NY,11565,(516) 561-5654,40.676206,-73.666911,,,
134,Independent,,,Mohawk Harvest Cooperative Market,0,51 North Main Street,Gloversville,NY,12078,(518) 706-0681,43.051907,-74.344684,,,
135,Independent,,,North Country Co-op,0,25 Bridge Street,Plattsburg,NY,12901,(518) 561-5904,44.6978,-73.4518,,,
136,Independent,,,Potsdam Consumer Co-op,0,24 Elm Street,Potsdam,NY,13676,(315) 265-4630,44.7461,-74.9977,,,
137,Independent,,,Rene Pujol Restaurant Cooperative,0,321 West 51st Street,New York,NY,10019,(212) 246-3023,40.76344,-73.98661,,,
138,Independent,,,Suny Binghamton Co-op,0,Student Union Suny Binghamton,Binghamton,NY,13905,(607) 777-4258,42.180177,-75.944714,,,
139,Independent,,,The Village Store Co-op,0,25 East Main Street,Cambridge,NY,12816,(518) 677-5731,43.0281,-73.38,,,
140,Independent,,,Twin Pines Food Co-op - Thrift Shop- Kayak Club,0,382 Main Street,Port Washington,NY,11050,(516) 883-9777,40.830569,-73.701979,,,
141,Independent,,,Company Shops Market,0,PO Box 152,Elon,NC,27244,(336) 314-1972,36.210025,-79.487862,,,
142,Independent,,,Durham Co-op Grocery,0,1101 W Chapel Hill Street,Durham,NC,27701,(919) 490-0929,35.996597,-78.915869,,,
143,Independent,,,Renaissance Community Co-opcoop,0,2517 Phillips Avenue,Greensboro,NC,27405,(336) 638-1722,36.096146,-79.744108,,,
144,Independent,,,Rich Harvest,0,215 Hubert Norris Road,Boone,NC,28607,(828) 265-0432,36.286082,-81.652744,,,
145,Independent,,,Amazing Grains Natural Food Market,0,214 De Mers,Grand Forks,ND,58201,(701) 775-4542,47.925794,-97.030481,,,
146,Independent,,,Akron Cooperative Market,0,PO Box 5737,Akron,OH,44372,(330) 869-2590,41.150868,-81.608894,,,
147,Independent,,,Bexley Natural Food Co-op,0,508 North Cassady Avenue,Columbus,OH,43209,(614) 252-3951,39.981187,-82.93196,,,
148,Independent,,,Clintonville Community Marketcoop,0,200 Crestview Road,Columbus,OH,43202,(614) 261-3663,40.022436,-83.007785,,,
149,Independent,,,Crumb's Bakery,0,94 Columbus Rd,Athens,OH,45701,(740) 592-3803,39.34874,-82.095744,,,
150,Independent,,,Federation of Ohio River Cooperatives,0,"320-E Outerbelt Street, Suite E",Columbus,OH,43213,(614) 861-2446,39.987508,-82.829692,,,
151,Independent,,,Fulton County Food Co-op,0,17623 County Road F,Wauseon,OH,43567,(419) 337-3023,41.558236,-84.202728,,,
152,Independent,,,Good Food Co-op,0,62 Pyatt Street,Youngstown,OH,44502,(330) 747-9368,41.089098,-80.655822,,,
153,Independent,,,Kent Natural Foods Co-op,0,151 E Main Street,Kent,OH,44240,(330) 673-2878,41.153909,-81.357058,,,
154,Independent,,,Trinity United Church of Christ,0,915 North Main Street,Akron,OH,44310,(330) 376-7186,41.110346,-81.509932,,,
155,Independent,,,Wooster Natural Foods,0,138 E. Liberty St.,Wooster,OH,44691,(330) 264-9797,40.798448,-81.939004,,,
156,Independent,,,Coos Head Food Co-op,0,1960 Sherman Ave,North Bend,OR,97459,(541) 756-7264,43.407404,-124.224131,,,
157,Independent,,,First Alternative Natural Foods Co-op,0,2855 NW Grant Ave,Corvallis,OR,97330,(541) 452-3115,44.578941,-123.282601,,,
158,Independent,,,Greater Baker Food Co-op,0,2816 10 th Street,Baker City,OR,97814,(541) 523-6281,44.784566,-117.84107,,,
159,Independent,,,Growers Market,0,454 Williamette,Eugene,OR,97401,(541) 687-1145,44.054814,-123.092941,,,
160,Independent,,,Oceana Natural Foods Co-op,0,159 SE 2nd Street,Newport,OR,97365,(541) 265-8285,44.635031,-124.051609,,,
161,Independent,,,Port Orford Community Co-opcoop,0,812 Oregon St.,Port Orford,OR,97465,(541) 366-2067,42.754139,-124.382235,,,
162,Independent,,,Salem Food Cooperativecoop,0,1240 Rural Ave. SE,Salem,OR,97302,(503) 871-9781,44.921015,-123.030058,,,
163,Independent,,,Creekside Coopcoop,0,7909 High School Road,Elkins Park,PA,19027,(215) 557-4480,40.071551,-75.127323,,,
164,Independent,,,Doylestown Food Co-opcoop startup,0,29 W. State Street,Doylestown,PA,18901,(215) 348-4548,39.967339,-76.715729,,,
165,Independent,,,Selene Whole Foods Co-op,0,305 W State Street,Media,PA,19063,(610) 566-1137,39.918536,-75.393075,,,
166,Independent,,,Swarthmore Co-op,0,401 Darthmouth Ave.,Swarthmore,PA,19081,(610) 543-9805,39.902205,-75.348823,,,
167,Independent,,,Alternative Food Co-op,0,357 Main St.,Wakefield,RI,2880,(401) 789-2240,41.437918,-71.500038,,,
168,Independent,,,Inman Feed Mill Food Coop,0,11831 Asheville Hwy,Inman,SC,29349,(864) 472-2876,35.040724,-82.087157,,,
169,Independent,,,Upstate Food Co-op,0,404 John Holiday Road,Six Mile,SC,29682,(864) 868-3105,34.794141,-82.796686,,,
170,Independent,,,Badger Town & Country Store,0,325 Main St.,Badger,SD,57214,(605) 983-5551,44.484954,-97.204655,,,
171,Independent,,,Breadroot Natural Foods Co-opcoop,0,100 East Blvd North,Rapid City,SD,57701,(605) 348-3331,44.083068,-103.214283,,,
172,Independent,,,Community Store Co-op,0,312 Main St,Fredrick,SD,57441,(605) 329-2375,45.832417,-98.506069,,,
173,Independent,,,Nature's Best Natural Food Co-op,0,306 South Main Street,Milbank,SD,57252,(605) 432-5614,45.219675,-96.636132,,,
174,Independent,,,Better Foods Co-op,0,753 E. Henderson Drive,Chattanooga,TN,37411,(423) 624-8075,35.028813,-85.225904,,,
175,Independent,,,Fresh Life Natural Food Coop,0,9101 Glouster Lane,Chattanooga,TN,37416,(423) 344-9244,35.119192,-85.15446,,,
176,Independent,,,Marketplace Buying Club Co-op,0,3135 Lakeland Drive,Nashville,TN,37214,(615) 899-4938,36.154324,-86.646331,,,
177,Independent,,,Midtown Food Coop,0,2158 Central Avenue,Memphis,TN,38104,(901) 276-2250,35.126271,-89.990072,,,
178,Independent,,,"""Best of the Blessed"" Healthy Food Co-op",0,2900 Mistywood Lane,Denton,TX,76209,(940) 380-0787,33.236804,-97.094803,,,
179,Independent,,,Central City Co-op,0,2115 Taft,Houston,TX,77006,(713) 524-9408,29.750003,-95.385366,,,
180,Independent,,,Keller Texas Produce Co-op,0,1401 Briar Meadow Dr.,Keller,TX,76248,(817) 284-2433,32.907217,-97.23231,,,
181,Independent,,,NuWaters Co-opcoop,0,2320 Elgin Street,Houston,TX,77004,(832) 807-3738,29.73479,-95.365741,,,
182,Independent,,,Moonflower Community Cooperative coop,0,39 E 100 N,Moab,UT,84532,(801) 259-5712,38.575075,-109.549995,,,
183,Independent,,,The Community Food Co-op of Utah: Crossroads Urban Center,0,1469 South 700 West,Salt Lake City,UT,84104,(801) 746-7878,40.737359,-111.911058,,,
184,Independent,,,Utah Co-opcoop,0,291 East 4500 South,Salt Lake City,UT,84107,(801) 556-2223,40.674409,-111.883761,,,
185,Independent,,,Adamant Co-op,0,Adamant Road PO Box 1,Adamant,VT,5640,(802) 223-5760,44.345252,-72.493226,,,
186,Independent,,,Buffalo Mountain Food Co-op,0,14 North Main Street,Hardwick,VT,5843,(802) 472-6020,44.506176,-72.364372,,,
187,Independent,,,City Market - Onion River Co-op,0,82 S. Winooski Avenue Suite 2,Burlington,VT,5401,(802) 863-3659,44.478156,-73.210781,,,
188,Independent,,,Nutshell Co-op,0,Box 175/Route 100,Wardsboro,VT,5355,(802) 896-6032,43.02055,-72.806426,,,
189,Independent,,,Otter Creek Food Co-op,0,235 Main Street,Vergennes,VT,5491,(802) 877-3663,44.167055,-73.253711,,,
190,Independent,,,Plainfield Coop,0,153 Main Street,Plainfield,VT,5667,(802) 454-8579,44.278047,-72.422932,,,
191,Independent,,,Rail City Market Co-op,0,8 S Main Street,St. Albans,VT,5478,(802) 524-3769,44.810674,-73.083687,,,
192,Independent,,,Rutland Area Food Co-op,0,77 Wales Street,Rutland,VT,5701,(802) 773-0737,43.605868,-72.977653,,,
193,Independent,,,St. J. Food Co-op,0,490 Portland Street,St. Johnsbury,VT,5819,(802) 748-9498,44.420685,-72.005916,,,
194,Independent,,,White River Co-op,0,24 Pleasant St.,Randolph,VT,5060,(802) 728-9554,43.923741,-72.663885,,,
195,Independent,,,Crozet Natural Foods,0,PO Box 634,Crozet,VA,22932,(434) 823-5583,38.151642,-78.69428,,,
196,Independent,,,Eats Natural Foods Co-op,0,1200 N. Main Street,Blacksburg,VA,24060,(540) 552-2279,37.241676,-80.417907,,,
197,Independent,,,Fare Share Cooperative,0,2132 W. Main Street,Richmond,VA,23220,(804) 355-5919,37.550199,-77.468144,,,
198,Independent,,,Healthy Foods Co-op,0,110 W Washington Street,Lexington,VA,24450,(540) 463-6954,37.785673,-79.443382,,,
199,Independent,,,Ferry Food Co-op,0,34 N Clark Avenue,Republic,WA,99166,(509) 775-3754,48.648802,-118.738117,,,
200,Independent,,,Mountain Community Co-op,0,105 Carter Street,Eatonville,WA,98328,(360) 832-2667,46.868998,-122.265973,,,
201,Independent,,,Salal Café,0,634 Water Street,Port Townsend,WA,98368,(360) 385-6532,48.115554,-122.754173,,,
202,Independent,,,Sunset West Food Co-opcoop,0,16795 Hwy 112,Clallam Bay,WA,98326,(360) 963-2189,48.25434,-124.259759,,,
203,Independent,,,Tacoma Food Co-operativecoop,0,3002 6th Avenue,Tacoma,WA,98406,(253) 627-3344,47.255018,-122.475206,,,
204,Independent,,,Tonasket Natural Foods Co-op,0,"21 W 4th Street, PO Box 591",Tonasket,WA,98855,(509) 486-4188,48.704797,-119.440662,,,
205,Independent,,,Touchstone Bakery,0,501-A North 36th,Seattle,WA,98103,(206) 547-4000,47.651637,-122.352206,,,
206,Independent,,,Vancouver Food Cooperativecoop,0,1002 Main Street,Vancouver,WA,98663,(360) 694-8094,45.628778,-122.67171,,,
207,Independent,,,Yelm Food Co-opcoop,0,308 Yelm Ave E,Yelm,WA,98597,(360) 400-2210,46.940529,-122.603347,,,
208,Independent,,,Growing Tree Natural Foods,0,208 Court St Apt #1,Spencer,WV,25276,(304) 927-3619,38.802369,-81.349723,,,
209,Independent,,,Mountain People's Market,0,1400 University Avenue,Morgantown,WV,26505,(304) 291-6131,39.631816,-79.956333,,,
210,Independent,,,Natural Roads Food Co-op,0,20 Fairfax Drive,Wheeling,WV,26003,(304) 242-8873,40.066527,-80.677779,,,
211,Independent,,,Commonhealth Foods Co-op Outlet,0,1019 Tower Avenue,Superior,WI,54880,(715) 392-9862,46.72639,-92.103978,,,
212,Independent,,,Iron River Grocery Co-op,0,307 North Main Street,Iron River,WI,54847,(715) 372-4264,46.563114,-91.41712,,,
213,Independent,,,Island City Food Co-op,0,1490 Second Ave / P.O.Box857,Cumberland,WI,54829,(715) 822-8233,45.537093,-92.021456,,,
214,Independent,,,Kickapoo Exchange Food Co-op,0,Box 276 209 Main Street,Gays Mills,WI,54631,(608) 735-4544,43.317374,-90.845134,,,
215,Independent,,,Main Street Market Whole Foods Co-op,0,1 South Main Street,Rice Lake,WI,54868,(715) 234-7045,45.501568,-91.733118,,,
216,Independent,,,Mega Pik N Save,0,1201 S Hastings Way,Eau Claire,WI,54701,(715) 836-8700,44.80507,-91.470571,,,
217,Independent,,,Natural Alternatives Food Co-op,0,241 Main Street / P.O. Box 377,Luck,WI,54837,(715) 472-8084,44.231386,-91.840264,,,
218,Independent,,,Nature's Bakery Co-op,0,1019 Williams Street,Madison,WI,53703,(608) 257-3649,43.081059,-89.366933,,,
219,Independent,,,Neighborhood Natural Foods Coop,0,320 Main St PO Box 35,Iron River,WI,54847,(715) 372-4022,44.876438,-91.926543,,,
220,Independent,,,Riverwest Co-op Grocery & Café,0,733 N. Clark St.,Milwaukee,WI,53212,(414) 264-7933,43.065512,-87.901817,,,
221,Independent,,,Stevens Point Area Food Co-op,0,633 Second St.,Stevens Point,WI,54481,(715) 341-1555,44.528983,-89.585511,,,
222,Independent,,,Trillium Natural Foods Community Co-op,0,517 Springdale Street,Mount Horeb,WI,53572,(608) 437-5288,43.009071,-89.73279,,,
223,Independent,,,Viola Food Co-op,0,110 Commercial Street / P.O. Box243,Viola,WI,54664,(608) 627-1476,43.506195,-90.668983,,,
224,Independent,,,Yahara River Grocery Cooperative,0,229 East Main Street,Stoughton,WI,53589,(608) 877-0947,44.689686,-87.474331,,,
225,Independent,,,Big Hollow Food Coop,0,119 South First Street.,Laramie,WY,82070,(307) 745-3586,41.146716,-104.823632,,,
226,Independent,,,Sweet Grass Food Co-op,0,169 Esterbrook Rd.,Douglas,WY,82633,(307) 358-0582,42.73447,-105.405258,,,
228,NCG,,,Food Conspiracy Co-op,1,412 N. 4th Ave.,Tucson,AZ,85705,(520) 624-4821,32.226849,-110.965151,,,
229,NCG,,,Ozark Natural Foods,1,1554 N. College Ave.,Fayetteville,AR,72703,(479) 521-7558,36.082265,-94.154349,,,
230,NCG,,,BriarPatch Food Co-op,1,290 Sierra College Drive,Grass Valley,CA,95945,(530) 272-5333,39.234932,-121.053462,,,
231,NCG,,,Chico Natural Foods Cooperative,1,818 Main Street,Chico,CA,95928,(530) 891-1713,39.725784,-121.835661,,,
232,NCG,,,Co+opportunity Market & Deli (Culver City),1,8770 Washington Blvd.,Culver City,CA,90232,(310) 451-8902,34.028312,-118.385556,,,
233,NCG,,,Co+opportunity Market & Deli (Santa Monica),1,1525 Broadway,Santa Monica,CA,90404,,34.023775,-118.482985,,,
234,NCG,,,Davis Food Co-op,1,620 G St.,Davis,CA,95616,(530) 758-2667,38.54941,-121.739945,,,
235,NCG,,,Feather River Food Co-op,1,60 N. Pine Street,Portola,CA,96122,(530) 832-1642,39.81063,-120.467904,,,
236,NCG,,,Isla Vista Food Co-op,1,6575 Seville Road,Isla Vista,CA,93117,(805) 968-1401,34.411728,-119.857688,,,
237,NCG,,,North Coast Co-op (Arcata),1,811 I Street,Arcata,CA,95521,(707) 822-5947,40.868951,-124.088516,,,
238,NCG,,,North Coast Co-op (Eureka),1,25 4th Street,Eureka,CA,95501,(707) 443-6027,40.802125,-124.17134,,,
239,NCG,,,O.B. Garden Café,1,4741 Voltaire Street,San Diego,CA,92107,(619) 255-1193,32.749181,-117.24219,,,
240,NCG,,,Ocean Beach People's Organic Food Co-op,1,4765 Voltaire Street,San Diego,CA,92107,(619) 224-1387,32.749436,-117.242607,,,
241,NCG,,,Quincy Natural Foods Co-op,1,269 Main Street,Quincy,CA,95971,(530) 283-3528,39.936923,-120.943526,,,
242,NCG,,,SLO Natural Foods Co-op,1,2494 Victoria Avenue,San Luis Obispo,CA,93401,(805) 544-7928,35.267347,-120.652434,,,
243,NCG,,,Sacramento Natural Foods Co-op,1,2820 R Street,Sacramento,CA,95816,(916) 455-2667,38.564524,-121.472509,,,
244,NCG,,,Ukiah Natural Foods Co-op,1,721 South State St.,Ukiah,CA,95482,(707) 462-4778,39.143184,-123.205092,,,
245,NCG,,,Durango Natural Foods Co-op,1,575 East 8th Avenue,Durango,CO,81301,(970) 247-8129,37.268015,-107.872515,,,
246,NCG,,,Fiddleheads Co-op,1,13 Broad Street,New London,CT,6320,(860) 701-9123,41.356073,-72.100236,,,
247,NCG,,,Willimantic Food Co-op,1,91 Valley Street,Willimantic,CT,6226,(860) 456-3611,41.713412,-72.211192,,,
248,NCG,,,Newark Natural Foods Co-op,1,230 East Main Street,Newark,DE,19711,(302) 368-5894,39.684234,-75.74386,,,
249,NCG,,,Ever'man Cooperative Grocery & Cafe,1,315 W. Garden St.,Pensacola,FL,32502,(850) 438-0402,30.411853,-87.220545,,,
250,NCG,,,New Leaf Market Co-op,1,1235 Apalachee Parkway,Tallahassee,FL,32301,(850) 942-2557,30.437295,-84.264332,,,
251,NCG,,,Daily Groceries Co-op *,1,523 Prince Avenue,Athens,GA,30601,(706) 548-1732,33.960646,-83.385881,,,
252,NCG,,,Life Grocery & Cafe,1,1453 Roswell Road,Marietta,GA,30062,(770) 977-9583,33.95111,-84.508979,,,
253,NCG,,,Sevananda Natural Foods Market,1,467 Moreland Ave NE,Atlanta,GA,30307,(404) 681-2831,33.766935,-84.34859,,,
254,NCG,,,Boise Co-op (North End),1,888 W. Fort St.,Boise,ID,83702,(208) 472-4500,43.622649,-116.198373,,,
255,NCG,,,Boise Co-op (The Village),1,2350 N. Eagle Road,Meridian,ID,83646,(208) 809-2200,43.626183,-116.351758,,,
256,NCG,,,Moscow Food Co-op,1,121 East 5th Street,Moscow,ID,83843,(208) 882-8537,46.730404,-117.000424,,,
257,NCG,,,Common Ground Food Co-op,1,300 S Broadway Avenue,Urbana,IL,61801,(217) 352-3347,40.110641,-88.207185,,,
258,NCG,,,Dill Pickle Food Co-op,1,2746 N. Milwaukee Avenue,Chicago,IL,60647,(773) 252-2667,41.930872,-87.710912,,,
259,NCG,,,Green Top Grocery *,1,921 E Washington Street,Bloomington,IL,61701,(309) 306-1523,40.47951,-88.980542,,,
260,NCG,,,Neighborhood Co-op Grocery,1,1815 W. Main Street,Carbondale,IL,62901,(618) 529-3533,37.726841,-89.240008,,,
261,NCG,,,Sugar Beet Food Co-op,1,812 W. Madison Street,Oak Park,IL,60302,(708) 948-7656,41.879835,-87.795544,,,
262,NCG,,,3 Rivers Natural Grocery,1,1612 Sherman Blvd.,Ft. Wayne,IN,46808,(260) 424-8812,41.089645,-85.153433,,,
263,NCG,,,Bloomingfoods Market and Deli (East Third St.),1,3220 E. Third St.,Bloomington,IN,47401,(812) 336-5400,39.164132,-86.491635,,,
264,NCG,,,Bloomingfoods Market and Deli (Ivy Tech),1,200 Daniels Way,Bloomington,IN,47404,(812) 822-0143,39.164826,-86.599014,,,
265,NCG,,,Bloomingfoods Market and Deli (West 6th Street),1,316 W. 6th St.,Bloomington,IN,47404,(812) 333-7312,39.167673,-86.536562,,,
266,NCG,,,Maple City Market,1,314 S. Main St.,Goshen,IN,46526,(574) 534-2355,41.583114,-85.834345,,,
267,NCG,,,New Pioneer Co-op (Cedar Rapids),1,"3338 Center Point Road, NE",Cedar Rapids,IA,52402,(319) 365-2632,42.01259,-91.663594,,,
268,NCG,,,New Pioneer Co-op (Coralville),1,1101 2nd Street,Coralville,IA,52241,(319) 358-5513,41.674352,-91.580287,,,
269,NCG,,,New Pioneer Co-op (Iowa City),1,22 South Van Buren,Iowa City,IA,52240,(319) 338-9441,41.660511,-91.528381,,,
270,NCG,,,Oneota Community Co-op,1,312 W. Water Street,Decorah,IA,52101,(563) 382-4666,43.304238,-91.788929,,,
271,NCG,,,Wheatsfield Cooperative,1,413 Northwestern Ave.,Ames,IA,50010,(515) 232-4094,42.025165,-93.621612,,,
272,NCG,,,The Merc Co+op,1,901 Iowa Street,Lawrence,KS,66044,(785) 843-8544,38.966007,-95.260512,,,
273,NCG,,,Good Foods Co-op,1,455-D Southland Dr.,Lexington,KY,40503,(859) 278-1813,38.019387,-84.527616,,,
274,NCG,,,Belfast Co-op,1,123 High Street,Belfast,ME,4915,(207) 338-2532,45.017225,-69.287385,,,
275,NCG,,,Blue Hill Co-op Community Market & Cafe,1,P.O. Box 1133,Blue Hill,ME,4614,(207) 374-2165,44.404347,-68.566056,,,
276,NCG,,,Portland Food Co-op,1,290 Congress Street,Portland,ME,4101,(207) 805-1599,43.661225,-70.252437,,,
277,NCG,,,Rising Tide Community Market,1,323 Main Street,Damariscotta,ME,4543,(207) 563-5556,44.03119,-69.524053,,,
278,NCG,,,TPSS Co-op,1,201 Ethan Allen Ave.,Takoma Park,MD,20912,(301) 891-2667,38.977779,-77.005926,,,
279,NCG,,,The Common Market,1,5728 Unit B-1 Buckeystown Pike,Frederick,MD,21704,(301) 663-3416,39.354103,-77.375,,,
280,NCG,,,Berkshire Co-op Market,1,42 Bridge Street,Great Barrington,MA,1230,(413) 528-9697,42.193016,-73.360801,,,
281,NCG,,,Franklin Community Co-op (Green Fields Market),1,144 Main Street,Greenfield,MA,1301,(413) 773-9567,42.588137,-72.603935,,,
282,NCG,,,Franklin Community Co-op (McCusker's Market),1,3 State Street,Shelburne Falls,MA,1370,(413) 625-9411,42.603747,-72.741457,,,
283,NCG,,,Harvest Co-op Markets (Arboretum),1,3815 Washington Street,Jamaica Plain,MA,2130,(617) 405-5300,42.309862,-71.114875,,,
284,NCG,,,Harvest Co-op Markets (Cambridge),1,580 Mass Ave.,Cambridge,MA,2139,(617) 661-1580,42.362539,-71.103044,,,
285,NCG,,,River Valley Co-op,1,330 North King Street,Northampton,MA,1060,(413) 584-2665,42.335215,-72.637117,,,
286,NCG,,,Wild Oats Market,1,320 Main Street,Williamstown,MA,1267,(413) 458-8060,42.703547,-73.18725,,,
287,NCG,,,Grain Train Natural Foods Market (Boyne City),1,104 S. Park St.,Boyne City,MI,49712,(231) 459-4522,45.214956,-85.013054,,,
288,NCG,,,Grain Train Natural Foods Market (Petoskey),1,220 E. Mitchell,Petoskey,MI,49770,(231) 347-2381,45.373685,-84.957655,,,
289,NCG,,,GreenTree Cooperative Grocery,1,214 N. Franklin Ave.,Mt. Pleasant,MI,48858,(989) 772-3221,43.605496,-84.774131,,,
290,NCG,,,Keweenaw Co-op Market & Deli,1,1035 Ethel Avenue,Hancock,MI,49930,(906) 482-2030,47.133193,-88.599651,,,
291,NCG,,,Marquette Food Co-op,1,502 West Washington,Marquette,MI,49855,(906) 225-0671,46.544746,-87.402631,,,
292,NCG,,,Oryana Community Co-op,1,260 E. 10th St.,Traverse City,MI,49684,(231) 947-0191,44.756967,-85.619805,,,
293,NCG,,,PFC Natural Grocery & Deli,1,507 Harrison Street,Kalamazoo,MI,49007,(269) 342-5686,42.296361,-85.574802,,,
294,NCG,,,People's Food Co-op - Ann Arbor,1,216 N. 4th Ave.,Ann Arbor,MI,48104,(734) 769-0095,42.282881,-83.746803,,,
295,NCG,,,Ypsilanti Food Co-op,1,312 N. River St.,Ypsilanti,MI,48198,(734) 483-1520,42.244707,-83.608479,,,
296,NCG,,,Bluff Country Co-op,1,121 W. 2nd St.,Winona,MN,55987,(507) 452-1815,44.053751,-91.637993,,,
297,NCG,,,City Center Market,1,122 North Buchanan Street,Cambridge,MN,55008,(763) 689-4640,45.572829,-93.22145,,,
298,NCG,,,Cook County Whole Foods Co-op,1,20 East First Street,Grand Marais,MN,55604,(218) 387-2503,47.231315,-93.528107,,,
299,NCG,,,Eastside Food Cooperative,1,2551 Central Avenue N.E.,Minneapolis,MN,55418,(612) 788-0950,45.014751,-93.246814,,,
300,NCG,,,Good Earth Food Co-op *,1,2010 Veterans Drive,St. Cloud,MN,56303,(320) 253-9290,45.565241,-94.181175,,,
301,NCG,,,Hampden Park Co-op,1,928 Raymond Avenue,St. Paul,MN,55114,(651) 646-6686,44.969096,-93.197769,,,
302,NCG,,,Harmony Natural Foods Co-op,1,302 Irvine Ave NW,Bemidji,MN,56601,(218) 751-2009,47.470815,-94.885276,,,
303,NCG,,,Harvest Moon Natural Foods,1,2380 W. Wayzata Blvd,Long Lake,MN,55356,(952) 345-3300,44.990057,-93.582535,,,
304,NCG,,,Just Food Co-op,1,516 Water Street S.,Northfield,MN,55057,(507) 650-0106,44.454393,-93.162154,,,
305,NCG,,,Lakewinds Food Co-op (Chanhassen),1,435 Pond Promenade,Chanhassen,MN,55317,(952) 697-3366,44.857334,-93.531695,,,
306,NCG,,,Lakewinds Food Co-op (Minnetonka),1,17501 Minnetonka Blvd.,Minnetonka,MN,55345,(952) 473-0292,44.941292,-93.500754,,,
307,NCG,,,Lakewinds Food Co-op (Richfield),1,6420 Lyndale Ave. S,Richfield,MN,55423,(612) 814-8000,44.886243,-93.288255,,,
308,NCG,,,Linden Hills Co-op,1,3815 Sunnyside Ave.,Minneapolis,MN,55410,(612) 922-1159,44.921948,-93.328462,,,
309,NCG,,,Mississippi Market (East 7th Street),1,740 East 7th Street,St. Paul,MN,55106,(651) 771-5061,44.959316,-93.070089,,,
310,NCG,,,Mississippi Market (Selby),1,622 Selby Ave.,St. Paul,MN,55104,(651) 310-9499,44.946488,-93.126493,,,
311,NCG,,,Mississippi Market (West 7th Street),1,1500 West 7th Street,St. Paul,MN,55102,(651) 690-0507,44.918563,-93.14003,,,
312,NCG,,,Natural Harvest Food Co-op,1,732 N. 4th Street,Virginia,MN,55792,(218) 741-4663,47.526812,-92.544755,,,
313,NCG,,,People's Food Co-op (Rochester),1,519 1st Ave SW,Rochester,MN,55902,(507) 289-9061,44.017228,-92.464749,,,
314,NCG,,,River Market Community Co-op,1,221 N. Main Street,Stillwater,MN,55082,(651) 439-0366,45.057811,-92.806568,,,
315,NCG,,,Saint Peter Food Co-op and Deli,1,228 W. Mulberry,Saint Peter,MN,56082,(507) 934-4880,44.322545,-93.959117,,,
316,NCG,,,Seward Community Co-op (Franklin),1,2823 E. Franklin Ave.,Minneapolis,MN,55406,(612) 338-2465,44.962478,-93.230618,,,
317,NCG,,,Seward Community Co-op (Friendship),1,317 East 38th Street,Minneapolis,MN,55409,(612) 230-5595,44.933906,-93.272057,,,
318,NCG,,,Spiral Natural Foods Co-op & Grocery *,1,1250 South Frontage Road,Hastings,MN,55033,(651) 437-2667,44.738915,-92.876339,,,
319,NCG,,,Valley Natural Foods,1,13750 County Road 11,Burnsville,MN,55337,(952) 891-1212,44.754588,-93.249204,,,
320,NCG,,,Wedge Co-op (Lyndale),1,2105 Lyndale Ave. S.,Minneapolis,MN,55405,(612) 871-3993,44.961537,-93.287606,,,
321,NCG,,,Wedge Co-op (Nicollet),1,2412 Nicollet Avenue,Minneapolis,MN,55404,(612) 465-8844,44.958474,-93.278376,,,
322,NCG,,,Whole Foods Co-op - Duluth (Denfeld),1,4426 Grand Avenue,Duluth,MN,55807,(218) 728-0884,46.747063,-92.156093,,,
323,NCG,,,Community Food Co-op - Bozeman (Downtown),1,44 E Main,Bozeman,MT,59715,(406) 922-2667,45.678966,-111.035892,,,
324,NCG,,,Community Food Co-op - Bozeman (West Main),1,908 West Main St.,Bozeman,MT,59715,(406) 587-4039,45.679001,-111.049895,,,
325,NCG,,,Open Harvest Cooperative Grocery,1,1618 South St.,Lincoln,NE,68502,(402) 475-9069,40.791851,-96.698117,,,
326,NCG,,,Great Basin Community Food Co-op,1,240 Court Street,Reno,NV,89501,(775) 324-6133,39.522611,-119.815474,,,
327,NCG,,,Concord Food Co-op (Concord),1,24 South Main St.,Concord,NH,3301,(603) 225-6840,43.203063,-71.535816,,,
328,NCG,,,Concord Food Co-op (New London),1,52 Newport Road,New London,NH,3257,(603) 526-6650,43.421532,-71.994056,,,
329,NCG,,,Hanover Co-op Food Stores (Hanover),1,45 South Park Street,Hanover,NH,3755,(603) 643-2667,43.698008,-72.280497,,,
330,NCG,,,Hanover Co-op Market (Hanover),1,43 Lyme Road,Hanover,NH,3755,(603) 643-2725,43.713428,-72.276528,,,
331,NCG,,,Littleton Food Co-op,1,43 Bethlehem Road,Littleton,NH,3561,(603) 444-2800,44.298664,-71.767173,,,
332,NCG,,,Monadnock Food Co-op,1,34 Cypress Street,Keene,NH,3431,(603) 355-8008,42.932006,-72.276247,,,
333,NCG,,,La Montañita Co-op (Gallup),1,105 East Coal,Gallup,NM,87301,(505) 863-5383,35.527811,-108.740914,,,
334,NCG,,,La Montañita Co-op (Nob Hill),1,3500 Central Ave. S.E.,Albuquerque,NM,87106,(505) 265-4631,35.079577,-106.605532,,,
335,NCG,,,La Montañita Co-op (Santa Fe),1,913 West Alameda,Santa Fe,NM,87501,(505) 984-2852,35.689435,-105.958651,,,
336,NCG,,,La Montañita Co-op (UNM Grab & Go),1,2301 Central NE,Albuquerque,NM,87106,(505) 277-9586,35.095439,-106.673937,,,
337,NCG,,,La Montañita Co-op (Valley),1,2400 Rio Grande,Albuquerque,NM,87104,(505) 242-8800,35.117948,-106.674937,,,
338,NCG,,,La Montañita Co-op (West),1,3601 Old Airport Road,Albuquerque,NM,87114,(505) 217-2001,35.202879,-106.652959,,,
339,NCG,,,Los Alamos Cooperative Market,1,95 Entrada Drive,Los Alamos,NM,87544,(505) 695-1579,35.876768,-106.260936,,,
340,NCG,,,Mountain View Market,1,1300 El Paseo,Las Cruces,NM,88001,(575) 523-0436,32.297043,-106.771761,,,
341,NCG,,,Silver City Food Co-op,1,520 N. Bullard St.,Silver City,NM,88061,(575) 388-2343,32.771895,-108.276114,,,
342,NCG,,,Abundance Food Co-op,1,571 South Avenue,Rochester,NY,14620,(585) 454-2667,43.1445,-77.6053,,,
343,NCG,,,East Aurora Co-op Market,1,591 Main Street,East Aurora,NY,14052,(716) 655-2667,42.7677,-78.6127,,,
344,NCG,,,Flatbush Food Cooperative,1,1415 Cortelyou Road,Brooklyn,NY,11226,(718) 284-9717,40.6412,-73.9647,,,
345,NCG,,,GreenStar Cooperative Market (Collegetown),1,307 College Avenue,Ithaca,NY,14850,(607) 273-2667,42.4406,-76.485,,,
346,NCG,,,GreenStar Cooperative Market (DeWitt),1,215 N. Cayuga St.,Ithaca,NY,14850,(607) 273-8210,42.4406,-76.4988,,,
347,NCG,,,GreenStar Cooperative Market (West End),1,701 W. Buffalo Street,Ithaca,NY,14850,(607) 273-9392,42.4407,-76.5111,,,
348,NCG,,,Honest Weight Food Co-op,1,100 Watervliet Ave.,Albany,NY,12206,(518) 482-2667,42.6787,-73.7817,,,
349,NCG,,,Hungry Hollow Co-op,1,841 Chestnut Ridge Road,Chestnut Ridge,NY,10977,(845) 356-3319,41.081941,-74.060563,,,
350,NCG,,,Lexington Cooperative Market (Elmwood),1,807 Elmwood Ave.,Buffalo,NY,14222,(716) 886-1036,42.9193,-78.8768,,,
351,NCG,,,Park Slope Food Coop,1,782 Union Street,Brooklyn,NY,11215,(718) 783-2187,40.674823,-73.976738,,,
352,NCG,,,Syracuse Cooperative Market,1,618 Kensington Rd.,Syracuse,NY,13210,(315) 472-1385,43.0319,-76.1164,,,
353,NCG,,,Chatham Marketplace,1,480 Hillsboro St.,Pittsboro,NC,27312,(919) 542-2643,35.726649,-79.174563,,,
354,NCG,,,Deep Roots Market,1,600 N. Eugene St.,Greensboro,NC,27401,(336) 292-9216,36.079542,-79.793287,,,
355,NCG,,,Durham Co-op Market,1,1111 West Chapel Hill Street,Durham,NC,27701,(919) 973-1707,35.996482,-78.916793,,,
356,NCG,,,French Broad Food Co-op,1,90 Biltmore Ave.,Asheville,NC,28801,(828) 255-7650,35.591698,-82.55051,,,
357,NCG,,,Hendersonville Community Co-op,1,60 South Charleston Lane,Hendersonville,NC,28792,(828) 693-0505,35.305245,-82.449046,,,
358,NCG,,,Tidal Creek Cooperative Food Market,1,5329 Oleander Drive,Wilmington,NC,28403,(910) 799-2667,34.209021,-77.860838,,,
359,NCG,,,Weaver Street Market (Carrboro),1,101 E. Weaver St.,Carrboro,NC,27510,(919) 929-0010,35.911204,-79.071107,,,
360,NCG,,,Weaver Street Market (Chapel Hill),1,716 Market St.,Chapel Hill,NC,27516,(919) 929-2009,35.88008,-79.065965,,,
361,NCG,,,Weaver Street Market (Hillsborough),1,228 South Churton Street,Hillsborough,NC,27278,(919) 245-5050,36.073559,-79.099796,,,
362,NCG,,,Phoenix Earth Food Co-op,1,1447 W. Sylvania Ave.,Toledo,OH,43612,(419) 476-3211,41.692219,-83.577536,,,
363,NCG,,,Alberta Cooperative Grocery,1,1500 N.E. Alberta Street,Portland,OR,97211,(503) 287-4333,45.558871,-122.649423,,,
364,NCG,,,Ashland Food Co-op,1,237 N. First St.,Ashland,OR,97520,(541) 482-2237,42.198715,-122.71155,,,
365,NCG,,,Astoria Co-op Grocery,1,1355 Exchange Street,Astoria,OR,97103,(503) 325-0027,46.187865,-123.828908,,,
366,NCG,,,First Alternative Co-op (North),1,2855 N.W. Grant Avenue,Corvallis,OR,97330,(541) 753-3115,44.578941,-123.282601,,,
367,NCG,,,Food Front Cooperative Grocery (Hillsdale),1,6344 S.W. Capitol Highway,Portland,OR,97239,(503) 546-6559,45.477996,-122.695654,,,
368,NCG,,,Food Front Cooperative Grocery (NW),1,2375 N.W. Thurman St.,Portland,OR,97210,(503) 222-5658,45.535689,-122.700253,,,
369,NCG,,,Medford Food Co-op,1,945 S Riverside Ave,Medford,OR,97501,(541) 779-2667,42.317842,-122.863305,,,
370,NCG,,,People's Food Co-op - Portland,1,3029 S.E. 21st Ave.,Portland,OR,97202,(503) 674-2642,45.500816,-122.644928,,,
371,NCG,,,East End Food Co-op,1,7516 Meade Street,Pittsburgh,PA,15208,(412) 242-3598,40.448312,-79.895704,,,
372,NCG,,,Mariposa Food Co-op,1,4824 Baltimore Ave.,Philadelphia,PA,19143,(215) 729-2121,39.947965,-75.220589,,,
373,NCG,,,Weavers Way Co-op (Ambler),1,217 E. Butler Avenue,Ambler,PA,19002,(215) 302-5550,40.157031,-75.217547,,,
374,NCG,,,Weavers Way Co-op (Chestnut Hill),1,8424 Germantown Ave,Philadelphia,PA,19118,(215) 843-2350,40.075264,-75.205323,,,
375,NCG,,,Whole Foods Cooperative,1,1341 West 26th Street,Erie,PA,16508,(814) 456-0282,42.101493,-80.101565,,,
376,NCG,,,Natural Abundance Food Co-op *,1,112 North Main Street,Aberdeen,SD,57401,(605) 229-4947,45.466718,-98.488031,,,
377,NCG,,,The Co-op Natural Foods,1,410 West 18th Street,Sioux Falls,SD,57104,(605) 339-9506,43.537081,-96.732225,,,
378,NCG,,,Three Rivers Market,1,1100 N. Central Street,Knoxville,TN,37917,(865) 525-2069,35.98081,-83.9284,,,
379,NCG,,,Wheatsville Co-op (Guadalupe),1,3101 Guadalupe St.,Austin,TX,78705,(512) 478-2667,30.297685,-97.740735,,,
380,NCG,,,Wheatsville Co-op (South Lamar),1,4001 South Lamar St. E,Austin,TX,78704,(512) 814-2888,30.235212,-97.791377,,,
381,NCG,,,Brattleboro Food Co-op,1,2 Main St.,Brattleboro,VT,5301,(802) 257-0236,42.850442,-72.557979,,,
382,NCG,,,City Market/Onion River Co-op (Downtown),1,82 South Winooski Avenue,Burlington,VT,5401,(802) 861-9700,44.478156,-73.210781,,,
383,NCG,,,City Market/Onion River Co-op (South End),1,207 Flynn Avenue,Burlington,VT,5401,(802) 540-6400,44.455041,-73.218384,,,
384,NCG,,,Hanover Co-op Food Stores (White River Junction),1,209 Maple Street,White River Junction,VT,5001,(802) 295-3400,43.652243,-72.318382,,,
385,NCG,,,Hunger Mountain Co-op,1,623 Stone Cutters Way,Montpelier,VT,5602,(802) 223-8000,44.253146,-72.571692,,,
386,NCG,,,Middlebury Natural Foods Co-op,1,9 Washington St.,Middlebury,VT,5753,(802) 388-7276,44.015033,-73.165192,,,
387,NCG,,,Putney Food Co-op,1,8 Carol Brown Way,Putney,VT,5346,(802) 387-5866,42.967997,-72.523131,,,
388,NCG,,,Springfield Food Co-op,1,335 River Street (Rt. 106),Springfield,VT,5156,(802) 885-3363,43.318219,-72.503956,,,
389,NCG,,,Upper Valley Food Co-op,1,193 N. Main St.,White River Junction,VT,5001,(802) 295-5804,43.650346,-72.3219,,,
390,NCG,,,Friendly City Food Co-op,1,150 East Wolfe Street,Harrisonburg,VA,22802,(540) 801-8882,38.451248,-78.866557,,,
391,NCG,,,Roanoke Co+op (Grandin Road),1,1319 Grandin Road S.W.,Roanoke,VA,24015,(540) 343-5652,37.265614,-79.977135,,,
392,NCG,,,Roanoke Co+op (Market Square),1,One Market Square,Roanoke,VA,24011,(540) 904-2733,37.271406,-79.939519,,,
393,NCG,,,Central Co-op (Seattle),1,1600 East Madison Street,Seattle,WA,98122,(206) 329-1545,47.61554,-122.310977,,,
394,NCG,,,Community Food Co-op - Bellingham (Cordata),1,315 Westerly Road,Bellingham,WA,98225,(360) 734-8158,48.7915,-122.49242,,,
395,NCG,,,Main Market Co-op,1,44 W. Main Avenue,Spokane,WA,99201,(509) 458-2667,47.65936,-117.412702,,,
396,NCG,,,Olympia Food Co-op (Eastside),1,3111 Pacific Ave. SE,Olympia,WA,98501,(360) 956-3870,47.042071,-122.856531,,,
397,NCG,,,Olympia Food Co-op (Westside),1,921 North Rogers St. NW,Olympia,WA,98502,(360) 754-7666,47.053319,-122.918936,,,
398,NCG,,,Orcas Food Co-op,1,"138-B North Beach Rd, #913",Eastsound,WA,98245,(360) 376-2009,48.694829,-122.90626,,,
399,NCG,,,PCC Community Markets (Bothell),1,22621 Bothell Everett Highway,Bothell,WA,98021,(425) 492-0122,47.792743,-122.214381,,,
400,NCG,,,PCC Community Markets (Burien),1,"15840 First Avenue, S",Burien,WA,98148,(206) 268-0270,47.46097,-122.331908,,,
401,NCG,,,PCC Community Markets (Columbia City),1,3610 S. Edmunds Street,Seattle,WA,98118,(206) 466-6182,47.558844,-122.28689,,,
402,NCG,,,PCC Community Markets (Edmonds),1,9803 Edmonds Way,Edmonds,WA,98020,(425) 275-9036,47.791643,-122.365992,,,
403,NCG,,,PCC Community Markets (Fremont),1,600 N 34th Street,Seattle,WA,98103,(206) 632-6811,47.649937,-122.351013,,,
404,NCG,,,PCC Community Markets (Greenlake Aurora),1,7504 Aurora Ave. North,Seattle,WA,98103,(206) 525-3586,47.683455,-122.344136,,,
405,NCG,,,PCC Community Markets (Greenlake Village),1,450 NE 71st Street,Seattle,WA,98115,(206) 729-5075,47.680264,-122.323425,,,
406,NCG,,,PCC Community Markets (Issaquah),1,1810 12th Ave. NW,Issaquah,WA,98027,(425) 369-1222,47.551614,-122.056338,,,
407,NCG,,,PCC Community Markets (Kirkland),1,10718 NE 68th St.,Kirkland,WA,98033,(425) 828-4622,47.667341,-122.197395,,,
408,NCG,,,PCC Community Markets (Redmond),1,11435 Avondale Road NE,Redmond,WA,98052,(425) 285-1400,47.701593,-122.09338,,,
409,NCG,,,PCC Community Markets (View Ridge),1,6514 40th Ave. NE,Seattle,WA,98115,(206) 526-7661,47.676153,-122.284478,,,
410,NCG,,,Skagit Valley Food Co-op,1,202 South First Street,Mount Vernon,WA,98273,(360) 336-9777,48.420091,-122.337349,,,
411,NCG,,,Sno-Isle Natural Foods Co-op,1,2804 Grand Ave.,Everett,WA,98201,(425) 259-3798,47.980399,-122.213287,,,
412,NCG,,,The Food Co-op - Port Townsend,1,414 Kearney St.,Port Townsend,WA,98368,(360) 385-2883,48.110758,-122.77064,,,
413,NCG,,,Basics Cooperative Natural Foods,1,1711 Lodge Drive,Janesville,WI,53545,(608) 754-3925,42.717724,-89.00099,,,
414,NCG,,,Chequamegon Food Co-op,1,700 Main Street West,Ashland,WI,54806,(715) 682-8251,46.587909,-90.890726,,,
415,NCG,,,Just Local Food Cooperative *,1,1117 South Farwell Street,Eau Claire,WI,54701,(715) 552-3366,44.804797,-91.492156,,,
416,NCG,,,Menomonie Market Food Co-op,1,"814 Main Street, East",Menomonie,WI,54751,(715) 235-6533,44.32602,-88.172359,,,
417,NCG,,,Outpost Natural Foods Co-op (Bayview),1,2826 S. Kinnickinnic Ave.,Milwaukee,WI,53207,(414) 755-3202,42.992478,-87.89065,,,
418,NCG,,,Outpost Natural Foods Co-op (Capitol Drive),1,100 E. Capitol Drive,Milwaukee,WI,53212,(414) 961-2597,43.089857,-87.909897,,,
419,NCG,,,Outpost Natural Foods Co-op (Mequon),1,7590 W. Mequon Road,Mequon,WI,53092,(262) 242-0426,43.221709,-88.003495,,,
420,NCG,,,Outpost Natural Foods Co-op (State),1,7000 W. State St.,Wauwatosa,WI,53213,(414) 778-2012,43.048008,-87.999743,,,
421,NCG,,,Outpost Natural Foods Market Cafe (Aurora Sinai Hospital),1,945 N. 12th Street,Milwaukee,WI,53233,(414) 220-9166,43.04257,-87.927957,,,
422,NCG,,,People's Food Co-op (La Crosse),1,315 5th Ave. South,La Crosse,WI,54601,(608) 784-5798,43.809469,-91.249722,,,
423,NCG,,,Viroqua Food Co+op,1,609 N. Main St.,Viroqua,WI,54665,(608) 637-7511,44.327469,-91.918893,,,
424,NCG,,,WE Market Co-op *,1,126 South Main Street,River Falls,WI,54022,(715) 425-7971,44.857669,-92.62625,,,
425,NCG,,,Willy Street Co-op (East),1,1221 Williamson Street,Madison,WI,53703,(608) 251-6776,43.08372,-89.362825,,,
426,NCG,,,Willy Street Co-op (North),1,2817 N. Sherman Avenue,Madison,WI,53704,(608) 709-5445,43.127677,-89.36225,,,
427,NCG,,,Willy Street Co-op (West),1,6825 University Ave,Middleton,WI,53562,(608) 284-7800,43.096944,-89.499532,,,
428,NCG,,,Puget Consumers' Co-op - Offices,1,4201 Roosevelt Way NE,Seattle,WA,98105,(206) 547-1222,47.657812,-122.318116,,,
429,NCG,,,Puget Consumers' Co-op - Seward Park,1,5041 Wilson Avenue S,Seattle,WA,98118,(206) 723-2720,47.555711,-122.270603,,,
430,NCG,,,Puget Consumers' Co-op - West Seattle,1,2749 California Avenue SW,Seattle,WA,98116,(206) 937-8481,47.577747,-122.387039,,,
431,Buying Club,,,MannaMarket Organic CO-OP and Food Hubbuying club,2,207 Berry Lane,Pelham,AL,35124,(205) 664-7722,33.300566,-86.784972,,,
433,Buying Club,,,Magpie Natural Foods Co-op & Buying Club,2,500 West Gurley Street,Prescott,AZ,86301,(520) 778-5880,34.542272,-112.475444,,,
434,Buying Club,,,North Scottsdale Organicsbuying club,2,,Scottsdale,AZ,85254,(623) 910-0470,33.615055,-111.951938,,,
435,Buying Club,,,"Organic Wholesale Feed, Grain and Flour Buyers' Club, Arizonabuying club",2,507 E Barbarita Ave,Gilbert,AZ,85234,(480) 577-5995,33.362626,-111.779495,,,
436,Buying Club,,,Monterey County Organic Co-opbuying club,2,PO BOX 1790,Seaside,CA,93955,(808) 492-0013,36.621707,-121.793527,,,
437,Buying Club,,,SanKo Food Buying Clubbuying club,2,(mailing) PO Box 175,Lodi,CA,95241,(916) 800-3897,38.152443,-121.306349,,,
438,Buying Club,,,Yucca Valley Co-opbuying club,2,58162 Aberdeen Dr.,Yucca Valley,CA,92284,(760) 221-0943,34.193996,-116.39435,,,
439,Buying Club,,,Farm2Table Trading Postbuying club,2,24485 County Road 5,Elbert,CO,80106,(303) 520-8490,39,-104,,,
440,Buying Club,,,Natural Foods Market & Buyers Co-op,2,112 Colorado Avenue,Pueblo,CO,81004,(719) 545-2958,38.259156,-104.621594,,,
441,Buying Club,,,Rafter W Ranchbuying club,2,27178 State Hwy 86,Simla,CO,80835,(719) 541-1002,38,-104,,,
442,Buying Club,,,Back to Basics CT Buying Club,2,c/o 50 Coolidge Street,Manchester,CT,6040,(860) 649-6535,41.761661,-72.522508,,,
443,Buying Club,,,Abundant Organic & Naturals Co-opbuying club,2,2203 Orlando Road,Panama City,FL,32405,(850) 358-2810,30.200698,-85.63503,,,
444,Buying Club,,,Empower Organic Buyer's Clubbuying club,2,37826 Highway 19,Umatilla,FL,32784,(352) 978-0509,28.89969,-81.686027,,,
445,Buying Club,,,Fresh Fruit & Veggie Co-opbuying club,2,"2250 SR 580, Suite 2",Clearwater,FL,33763,(727) 488-0858,28.020003,-82.744589,,,
446,Buying Club,,,Gator Organicsbuying club,2,1323 NW 8 St.,Gainesville,FL,32601,(352) 222-5392,29.664641,-82.332809,,,
447,Buying Club,,,Joy Of Organicsbuying club,2,1439 NE 53 Street,Fort Lauderdale,FL,33334,(954) 465-6502,26.193022,-80.129346,,,
448,Buying Club,,,My Organic Food Club,2,3000 Banyan Road,Boca Raton,FL,33432,(877) 832-8289,26.321779,-80.076694,,,
449,Buying Club,,,NSB Eats Organicbuying club,2,Columbus Avenue,New Smyrna Beach,FL,32169,(386) 690-9355,28.977764,-80.870922,,,
450,Buying Club,,,Nadoona Food Co-op Orlandobuying club,2,7963 Harbor Bend Circle,Orlando,FL,32822,(407) 591-9493,28.476406,-81.280662,,,
451,Buying Club,,,Organic Produce Buying Club of South Florida,2,none,Florida,FL,0,(305) 868-2136,28,-80,,,
452,Buying Club,,,Queen Bee Foodsbuying club,2,"2213 Cypress Point Drive, East",Clearwater,FL,33763,(727) 906-5147,28.001674,-82.746762,,,
453,Buying Club,,,Dirt Road Organics Buying Clubbuying club,2,1979 Harrietts Bluff Rd,Woodbine,GA,31569,(912) 729-9580,30.907369,-81.704849,,,
454,Buying Club,,,Food Shed Co-opnascent,2,(mailing) PO Box 1663,Woodstock,IL,60098,(815) 315-1541,42.325292,-88.457852,,,
455,Buying Club,,,Plainfield Cooperative Buying Club,2,8364 E. County Road 801 S,Plainfield,IN,46168,(317) 834-1141,39.648696,-86.373159,,,
456,Buying Club,,,Quad Cities Organic Lifestylebuying club,2,1130 Highland Park Drive,Bettendorf,IA,52722,(309) 781-0899,41.534667,-90.517533,,,
457,Buying Club,,,SE KS Buying Club,2,11th & Walnut,Independence,KS,67301,(620) 205-7095,37.2089,-95.753408,,,
458,Buying Club,,,Boondocks Buying Clubbuying club,2,North Maine Street,Greenwood,ME,4255,(207) 357-5482,44.336241,-70.670507,,,
459,Buying Club,,,Authentic Provisionsbuying club,2,Martindale Road,South Lyon,MI,48178,(248) 446-7305,42.444682,-83.663542,,,
460,Buying Club,,,Brighton Food Cooperativebuying club,2,4440 Brighton Road,Howell,MI,48853,(517) 404-8054,43.101258,-84.690201,,,
461,Buying Club,,,Community Vibrationsbuying club,2,4200 Trumble Rd,Jackson,MI,49201,(517) 740-9703,42.29884,-84.347718,,,
462,Buying Club,,,Dibbleville Food Cooperativebuying club,2,106 East Elizabeth Street,Fenton,MI,48430,(810) 629-1175,42.792299,-83.704649,,,
463,Buying Club,,,RealFoodEater Buyers Clubbuying club,2,4298 72nd Ave,Zeeland,MI,49464,(616) 799-1783,42.847096,-85.959265,,,
464,Buying Club,,,Simple Times Farm Market & Buying Club,2,6081 E. Baldwin Rd.,Grand Blanc,MI,48504,(810) 771-4480,42.88961,-83.587722,,,
465,Buying Club,,,Sturgeon River Co-opbuying club,2,(mailing) P.O. Box 555,Wolverine,MI,49799,(231) 758-4725,45.261076,-84.581986,,,
466,Buying Club,,,Wild Rice Buying Club,2,912 20TH Avenue South,Moorhead,MN,56560,(218) 236-1181,46.855188,-96.765549,,,
467,Buying Club,,,City Food Co-op (Buying Group of St. Louis),2,2855 Minnesota Avenue,St. Louis,MO,63118,(314) 771-7213,38.603535,-90.233048,,,
468,Buying Club,,,Nebraska Food Cooperativebuying club,2,PO Box 94691,Lincoln,NE,68509-4691,(800) 993-2379,40.816704,-96.709171,,,
469,Buying Club,,,Vegas Food Co-Opbuying club,2,920 Clubview Dr,Henderson,NV,89015,(702) 580-0764,36.035928,-114.952241,,,
470,Buying Club,,,Taos Food Co-opbuying club,2,314 Paseo Del Pueblo Norte Suite G,Taos,NM,87571,(575) 758-3840,36.402026,-105.575275,,,
471,Buying Club,,,ARA Food Clubbuying club,2,300 CC Road,Williamstown,NY,13493,(315) 806-0893,43.4553,-75.8993,,,
472,Buying Club,,,Conscious Fork's conscious supportive eating (CSE) clubbuying club,2,14 Railroad Ave,Warwick,NY,10990,(845) 988-5253,41.255661,-74.359256,,,
473,Buying Club,,,Know Thy Food Co-opbuying club,2,3434 SE Milwaukie Ave.,Portland,OR,97202,(503) 206-5766,45.497726,-122.653607,,,
474,Buying Club,,,Lents Grocery Buying Clubbuying club,2,SE 85th,Portland,OR,97266,(503) 954-2666,45.482632,-122.558438,,,
475,Buying Club,,,Baba's Oasisbuying club,2,3216 Pershing Ave,Memphis,TN,38112,(901) 601-2239,35.154004,-89.953651,,,
476,Buying Club,,,Morningside Buying Club,2,215 Morningside Lane,Liberty,TN,37095,(615) 563-2353,35.893845,-85.96685,,,
477,Buying Club,,,Lindale Organic Foodsbuying club,2,15865 County Rd 463,Lindale,TX,75771,(814) 574-0215,32.498187,-95.40789,,,
478,Buying Club,,,Natural Living Organic Food Co-opcoopbuying club,2,219 N. Michigan Ave,League City,TX,77573,(832) 938-8729,29.511945,-95.092344,,,
479,Buying Club,,,Pearland Organic Foodbuying club,2,12530 Oday Rd.,Brookside Village,TX,77581,(817) 913-0910,29.593174,-95.315204,,,
480,Buying Club,,,Jefferson Food Coopbuying club,2,105 4th St.,Shenandoah Junction,WV,25442,(304) 283-8300,39.356631,-77.841409,,,
481,Buying Club,,,The Natural Life Co-Opbuying club,2,W6325 Lost Arrow Rd,Fond du Lac,WI,54937,(920) 960-8801,43.761338,-88.430324,,,
482,Buying Club,,,West Bend Buying Clubbuying club,2,W2726 Badger Dr,Campbellsport,WI,53010,(920) 533-8267,43.608833,-88.277859,,,
483,Buying Club,,,Awesome Organic Club,2,644 Juniper Place,Wellington,FL,33414,(561) 793-1549,26.670042,-80.269454,,,
484,Buying Club,,,Buying Club,2,14750 M.L.K. Blvd,Jacksonville Florida,FL,0,(904) 881-5773,26,-80,,,
485,Buying Club,,,Addison Buying Club - Seven Sons Farmsbuying club,2,292 Oak Meadows Dr,Wood Dale,IL,60101,(877) 620-1977,41.944513,-87.970005,,,
486,Buying Club,,,HC Buying Clubbuying club,2,4395 N White Road,Pierson,MI,49339,(616) 260-0722,43.358247,-85.542102,,,
487,Buying Club,,,Schultz Organic Select Foodsbuying club,2,3510 Park Drive,Owatonna,MN,56093,(507) 455-9362,44.064612,-93.514742,,,
488,Buying Club,,,Middletown Food Coopbuying club,2,117 Jogee Road,Middletown,NY,10940,(845) 355-6683,41.39324,-74.501312,,,
489,,,,National Co+op Grocers,3,"14 S. Linn Street, Iowa City",,IA,52240,(866) 709-COOP,20,-85.531544,,,
490,,,,Independent,4,,,,,,20,-70,,,
491,,,,Buying Club,5,,,,,,20,-90,,,
492,,,,Food Coops,6,,,,,,20,-98,,,
bckm_22773,,,,,,,,,,,,,true,34.111109,-77.851669
bckm_22772,,,,,,,,,,,,,true,34.149164,-77.855835
bckm_22771,,,,,,,,,,,,,true,34.175272,-77.820847
bckm_22770,,,,,,,,,,,,,true,34.111109,-77.851669
bckm_22769,,,,,,,,,,,,,true,45.536661,-123.938599
bckm_22768,,,,,,,,,,,,,true,45.558329,-123.934433
bckm_22767,,,,,,,,,,,,,true,45.56444,-123.916946
bckm_22766,,,,,,,,,,,,,true,45.536661,-123.938599
bckm_22765,,,,,,,,,,,,,true,47.595545,-122.495827
bckm_22764,,,,,,,,,,,,,true,47.671663,-122.58168
bckm_22763,,,,,,,,,,,,,true,47.715273,-122.503342
bckm_22762,,,,,,,,,,,,,true,47.595545,-122.495827
bckm_22761,,,,,,,,,,,,,true,49.359163,-95.078064
bckm_22760,,,,,,,,,,,,,true,48.999437,-95.154175
bckm_22759,,,,,,,,,,,,,true,48.999437,-122.7603
bckm_22758,,,,,,,,,,,,,true,48.598047,-122.4375
bckm_22757,,,,,,,,,,,,,true,48.486109,-122.704453
bckm_22756,,,,,,,,,,,,,true,48.291666,-122.379173
bckm_22755,,,,,,,,,,,,,true,47.401102,-122.309723
bckm_22754,,,,,,,,,,,,,true,47.064157,-122.878601
bckm_22753,,,,,,,,,,,,,true,47.151659,-123.068619
bckm_22752,,,,,,,,,,,,,true,47.395273,-122.797501
bckm_22751,,,,,,,,,,,,,true,47.189714,-122.758621
bckm_22750,,,,,,,,,,,,,true,47.420549,-122.619164
bckm_22749,,,,,,,,,,,,,true,47.28277,-122.549988
bckm_22748,,,,,,,,,,,,,true,47.774439,-122.454727
bckm_22747,,,,,,,,,,,,,true,47.938044,-122.565552
bckm_22746,,,,,,,,,,,,,true,47.399721,-123.102493
bckm_22745,,,,,,,,,,,,,true,47.439157,-122.836403
bckm_22744,,,,,,,,,,,,,true,47.368601,-123.147507
bckm_22743,,,,,,,,,,,,,true,47.915827,-122.63028
bckm_22742,,,,,,,,,,,,,true,48.161104,-122.751106
bckm_22741,,,,,,,,,,,,,true,48.395273,-124.715843
bckm_22740,,,,,,,,,,,,,true,46.941103,-124.161942
bckm_22739,,,,,,,,,,,,,true,46.976099,-123.796661
bckm_22738,,,,,,,,,,,,,true,46.861383,-124.097504
bckm_22737,,,,,,,,,,,,,true,46.693071,-123.752563
bckm_22736,,,,,,,,,,,,,true,46.391108,-123.941673
bckm_22735,,,,,,,,,,,,,true,46.397776,-123.98999
bckm_22734,,,,,,,,,,,,,true,46.654436,-124.015839
bckm_22733,,,,,,,,,,,,,true,46.658045,-124.04277
bckm_22732,,,,,,,,,,,,,true,46.32361,-124
bckm_22731,,,,,,,,,,,,,true,46.195192,-123.163574
bckm_22730,,,,,,,,,,,,,true,46.181108,-123.95195
bckm_22729,,,,,,,,,,,,,true,43.371103,-124.138344
bckm_22728,,,,,,,,,,,,,true,42.866106,-124.524437
bckm_22727,,,,,,,,,,,,,true,41.431108,-124.039993
bckm_22726,,,,,,,,,,,,,true,40.266108,-124.33223
bckm_22725,,,,,,,,,,,,,true,39.717211,-123.775833
bckm_22724,,,,,,,,,,,,,true,38.932497,-123.703613
bckm_22723,,,,,,,,,,,,,true,38.461107,-123.104721
bckm_22722,,,,,,,,,,,,,true,38.088045,-122.803595
bckm_22721,,,,,,,,,,,,,true,38.239614,-122.964561
bckm_22720,,,,,,,,,,,,,true,38.00511,-122.99707
bckm_22719,,,,,,,,,,,,,true,37.827776,-122.491379
bckm_22718,,,,,,,,,,,,,true,38.15555,-122.36528
bckm_22717,,,,,,,,,,,,,true,38.06138,-122.109734
bckm_22716,,,,,,,,,,,,,true,38.148115,-122.018623
bckm_22715,,,,,,,,,,,,,true,38.044718,-121.736107
bckm_22714,,,,,,,,,,,,,true,38.115831,-121.576683
bckm_22713,,,,,,,,,,,,,true,38.012774,-121.419998
bckm_22712,,,,,,,,,,,,,true,38.05916,-122.240547
bckm_22711,,,,,,,,,,,,,true,37.957773,-122.393341
bckm_22710,,,,,,,,,,,,,true,37.471376,-122.005835
bckm_22709,,,,,,,,,,,,,true,37.816668,-122.386948
bckm_22708,,,,,,,,,,,,,true,37.518328,-122.488052
bckm_22707,,,,,,,,,,,,,true,36.879435,-121.796387
bckm_22706,,,,,,,,,,,,,true,36.312494,-121.867493
bckm_22705,,,,,,,,,,,,,true,35.135828,-120.614166
bckm_22704,,,,,,,,,,,,,true,34.570833,-120.62027
bckm_22703,,,,,,,,,,,,,true,34.050829,-118.534729
bckm_22702,,,,,,,,,,,,,true,33.327494,-117.480827
bckm_22701,,,,,,,,,,,,,true,32.535334,-117.122374
bckm_22700,,,,,,,,,,,,,true,32.718458,-114.719093
bckm_22699,,,,,,,,,,,,,true,32.50699,-114.80983
bckm_22698,,,,,,,,,,,,,true,31.971071,-113.052887
bckm_22697,,,,,,,,,,,,,true,31.333055,-111.045837
bckm_22696,,,,,,,,,,,,,true,31.333055,-108.208344
bckm_22695,,,,,,,,,,,,,true,31.783335,-108.208618
bckm_22694,,,,,,,,,,,,,true,31.750277,-106.400848
bckm_22693,,,,,,,,,,,,,true,30.572779,-104.900558
bckm_22692,,,,,,,,,,,,,true,29.67111,-104.540009
bckm_22691,,,,,,,,,,,,,true,29.023611,-103.375
bckm_22690,,,,,,,,,,,,,true,29.889444,-102.305847
bckm_22689,,,,,,,,,,,,,true,29.772779,-101.405014
bckm_22688,,,,,,,,,,,,,true,27.570276,-99.505005
bckm_22687,,,,,,,,,,,,,true,26.434999,-99.104736
bckm_22686,,,,,,,,,,,,,true,25.966429,-97.140739
bckm_22685,,,,,,,,,,,,,true,26.836111,-97.559433
bckm_22684,,,,,,,,,,,,,true,27.2675,-97.423889
bckm_22683,,,,,,,,,,,,,true,27.458887,-97.773895
bckm_22682,,,,,,,,,,,,,true,27.327497,-97.411118
bckm_22681,,,,,,,,,,,,,true,27.866388,-97.520554
bckm_22680,,,,,,,,,,,,,true,27.827497,-97.184723
bckm_22679,,,,,,,,,,,,,true,28.473051,-96.803604
bckm_22678,,,,,,,,,,,,,true,28.43611,-96.398346
bckm_22677,,,,,,,,,,,,,true,28.719717,-96.641678
bckm_22676,,,,,,,,,,,,,true,28.649164,-95.985825
bckm_22675,,,,,,,,,,,,,true,28.485552,-96.212784
bckm_22674,,,,,,,,,,,,,true,29.057501,-95.140839
bckm_22673,,,,,,,,,,,,,true,29.177774,-95.093887
bckm_22672,,,,,,,,,,,,,true,29.314444,-94.902786
bckm_22671,,,,,,,,,,,,,true,29.375555,-94.888062
bckm_22670,,,,,,,,,,,,,true,29.718885,-95.059433
bckm_22669,,,,,,,,,,,,,true,29.561388,-94.47583
bckm_22668,,,,,,,,,,,,,true,29.363886,-94.772507
bckm_22667,,,,,,,,,,,,,true,29.676107,-93.857498
bckm_22666,,,,,,,,,,,,,true,29.98805,-93.845276
bckm_22665,,,,,,,,,,,,,true,29.704165,-93.840286
bckm_22664,,,,,,,,,,,,,true,29.539721,-92.308334
bckm_22663,,,,,,,,,,,,,true,29.830278,-91.841675
bckm_22662,,,,,,,,,,,,,true,29.240831,-91.246948
bckm_22661,,,,,,,,,,,,,true,29.091944,-90.206665
bckm_22660,,,,,,,,,,,,,true,29.5725,-90.178329
bckm_22659,,,,,,,,,,,,,true,29.155832,-89.272781
bckm_22658,,,,,,,,,,,,,true,28.926664,-89.404999
bckm_22657,,,,,,,,,,,,,true,29.176943,-89.008347
bckm_22656,,,,,,,,,,,,,true,29.33972,-89.18721
bckm_22655,,,,,,,,,,,,,true,29.52389,-89.676392
bckm_22654,,,,,,,,,,,,,true,29.630831,-89.753342
bckm_22653,,,,,,,,,,,,,true,30.050833,-89.399445
bckm_22652,,,,,,,,,,,,,true,29.873888,-89.658051
bckm_22651,,,,,,,,,,,,,true,30.167776,-89.667221
bckm_22650,,,,,,,,,,,,,true,30.198332,-90.419724
bckm_22649,,,,,,,,,,,,,true,30.314444,-88.132767
bckm_22648,,,,,,,,,,,,,true,30.701109,-88.020279
bckm_22647,,,,,,,,,,,,,true,30.285276,-87.756393
bckm_22646,,,,,,,,,,,,,true,30.219442,-88.023621
bckm_22645,,,,,,,,,,,,,true,30.496664,-86.263336
bckm_22644,,,,,,,,,,,,,true,30.049444,-85.392227
bckm_22643,,,,,,,,,,,,,true,30.104441,-85.633942
bckm_22642,,,,,,,,,,,,,true,29.676664,-85.354172
bckm_22641,,,,,,,,,,,,,true,30.105555,-84.207504
bckm_22640,,,,,,,,,,,,,true,29.906107,-83.669449
bckm_22639,,,,,,,,,,,,,true,28.884996,-82.631104
bckm_22638,,,,,,,,,,,,,true,27.855276,-82.853333
bckm_22637,,,,,,,,,,,,,true,27.656942,-82.722504
bckm_22636,,,,,,,,,,,,,true,28.032221,-82.691376
bckm_22635,,,,,,,,,,,,,true,27.917498,-82.422501
bckm_22634,,,,,,,,,,,,,true,27.461664,-82.655273
bckm_22633,,,,,,,,,,,,,true,26.837221,-82.30278
bckm_22632,,,,,,,,,,,,,true,26.96472,-82.017227
bckm_22631,,,,,,,,,,,,,true,26.545,-82.064163
bckm_22630,,,,,,,,,,,,,true,26.710554,-81.777786
bckm_22629,,,,,,,,,,,,,true,26.482832,-81.970055
bckm_22628,,,,,,,,,,,,,true,25.959444,-81.736588
bckm_22627,,,,,,,,,,,,,true,25.804998,-81.33667
bckm_22626,,,,,,,,,,,,,true,25.25139,-80.915283
bckm_22625,,,,,,,,,,,,,true,25.115553,-81.088058
bckm_22624,,,,,,,,,,,,,true,25.184721,-80.398621
bckm_22623,,,,,,,,,,,,,true,26.786665,-80.033325
bckm_22622,,,,,,,,,,,,,true,28.415831,-80.755569
bckm_22621,,,,,,,,,,,,,true,28.790556,-80.844162
bckm_22620,,,,,,,,,,,,,true,28.6075,-80.602219
bckm_22619,,,,,,,,,,,,,true,27.864443,-80.446655
bckm_22618,,,,,,,,,,,,,true,28.525,-80.55249
bckm_22617,,,,,,,,,,,,,true,29.796667,-81.25528
bckm_22616,,,,,,,,,,,,,true,31.125555,-81.496948
bckm_22615,,,,,,,,,,,,,true,32.214159,-80.669998
bckm_22614,,,,,,,,,,,,,true,32.516665,-80.836945
bckm_22613,,,,,,,,,,,,,true,32.315828,-80.467224
bckm_22612,,,,,,,,,,,,,true,32.521662,-80.671661
bckm_22611,,,,,,,,,,,,,true,33.009722,-79.381943
bckm_22610,,,,,,,,,,,,,true,33.058947,-79.371719
bckm_22609,,,,,,,,,,,,,true,33.165545,-79.205841
bckm_22608,,,,,,,,,,,,,true,33.373323,-79.271393
bckm_22607,,,,,,,,,,,,,true,33.43638,-79.188599
bckm_22606,,,,,,,,,,,,,true,33.27894,-79.196442
bckm_22605,,,,,,,,,,,,,true,33.730272,-78.827499
bckm_22604,,,,,,,,,,,,,true,33.891939,-78.013626
bckm_22603,,,,,,,,,,,,,true,34.158602,-77.96167
bckm_22602,,,,,,,,,,,,,true,33.927774,-77.930832
bckm_22601,,,,,,,,,,,,,true,34.741938,-77.428879
bckm_22600,,,,,,,,,,,,,true,34.886942,-76.335831
bckm_22599,,,,,,,,,,,,,true,34.977488,-76.944443
bckm_22598,,,,,,,,,,,,,true,35.156099,-77.076401
bckm_22597,,,,,,,,,,,,,true,34.987772,-76.761398
bckm_22596,,,,,,,,,,,,,true,35.271662,-76.468887
bckm_22595,,,,,,,,,,,,,true,35.530275,-77.050827
bckm_22594,,,,,,,,,,,,,true,35.336939,-76.14917
bckm_22593,,,,,,,,,,,,,true,35.81444,-75.720276
bckm_22592,,,,,,,,,,,,,true,35.974993,-75.853607
bckm_22591,,,,,,,,,,,,,true,35.649996,-76.035278
bckm_22590,,,,,,,,,,,,,true,35.991938,-76.070847
bckm_22589,,,,,,,,,,,,,true,35.939432,-76.73056
bckm_22588,,,,,,,,,,,,,true,36.264162,-76.706116
bckm_22587,,,,,,,,,,,,,true,36.031107,-76.656662
bckm_22586,,,,,,,,,,,,,true,36.153322,-76.063049
bckm_22585,,,,,,,,,,,,,true,36.319994,-76.195541
bckm_22584,,,,,,,,,,,,,true,36.069994,-75.785553
bckm_22583,,,,,,,,,,,,,true,36.716661,-75.938889
bckm_22582,,,,,,,,,,,,,true,35.803881,-75.529175
bckm_22581,,,,,,,,,,,,,true,36.913881,-75.98999
bckm_22580,,,,,,,,,,,,,true,37.296389,-77.232224
bckm_22579,,,,,,,,,,,,,true,37.078882,-76.268066
bckm_22578,,,,,,,,,,,,,true,37.42972,-76.68277
bckm_22577,,,,,,,,,,,,,true,37.273882,-76.381104
bckm_22576,,,,,,,,,,,,,true,37.567499,-76.286667
bckm_22575,,,,,,,,,,,,,true,38.17277,-77.133896
bckm_22574,,,,,,,,,,,,,true,37.618601,-76.353607
bckm_22573,,,,,,,,,,,,,true,37.904993,-76.241669
bckm_22572,,,,,,,,,,,,,true,38.34527,-77.320007
bckm_22571,,,,,,,,,,,,,true,38.905268,-77.061111
bckm_22570,,,,,,,,,,,,,true,38.398333,-77.244446
bckm_22569,,,,,,,,,,,,,true,38.046389,-76.309998
bckm_22568,,,,,,,,,,,,,true,38.480547,-76.666107
bckm_22567,,,,,,,,,,,,,true,38.363611,-76.376099
bckm_22566,,,,,,,,,,,,,true,39.254168,-76.618607
bckm_22565,,,,,,,,,,,,,true,39.577494,-75.83168
bckm_22564,,,,,,,,,,,,,true,38.857218,-76.360001
bckm_22563,,,,,,,,,,,,,true,38.648607,-75.956665
bckm_22562,,,,,,,,,,,,,true,38.366938,-76.242493
bckm_22561,,,,,,,,,,,,,true,38.398882,-75.838058
bckm_22560,,,,,,,,,,,,,true,37.949434,-75.880829
bckm_22559,,,,,,,,,,,,,true,37.961176,-75.644043
bckm_22558,,,,,,,,,,,,,true,37.152216,-75.960831
bckm_22557,,,,,,,,,,,,,true,38.421663,-75.043884
bckm_22556,,,,,,,,,,,,,true,39.648882,-75.588608
bckm_22555,,,,,,,,,,,,,true,40.012308,-75.028519
bckm_22554,,,,,,,,,,,,,true,39.618052,-75.557495
bckm_22553,,,,,,,,,,,,,true,39.167772,-74.892775
bckm_22552,,,,,,,,,,,,,true,38.924166,-74.955002
bckm_22551,,,,,,,,,,,,,true,39.355272,-74.415558
bckm_22550,,,,,,,,,,,,,true,39.421068,-74.462593
bckm_22549,,,,,,,,,,,,,true,39.516108,-74.405563
bckm_22548,,,,,,,,,,,,,true,39.704996,-74.150284
bckm_22547,,,,,,,,,,,,,true,40.057497,-74.053879
bckm_22546,,,,,,,,,,,,,true,39.776941,-74.076401
bckm_22545,,,,,,,,,,,,,true,40.299997,-73.952225
bckm_22544,,,,,,,,,,,,,true,40.47471,-74.269165
bckm_22543,,,,,,,,,,,,,true,41.305269,-73.956665
bckm_22542,,,,,,,,,,,,,true,40.713461,-73.99749
bckm_22541,,,,,,,,,,,,,true,41.286112,-72.906387
bckm_22540,,,,,,,,,,,,,true,41.366938,-71.50528
bckm_22539,,,,,,,,,,,,,true,41.811937,-71.391388
bckm_22538,,,,,,,,,,,,,true,41.795,-71.111115
bckm_22537,,,,,,,,,,,,,true,41.466661,-71.185822
bckm_22536,,,,,,,,,,,,,true,41.669443,-69.936386
bckm_22535,,,,,,,,,,,,,true,42.062212,-70.078888
bckm_22534,,,,,,,,,,,,,true,41.79722,-70.011124
bckm_22533,,,,,,,,,,,,,true,41.711382,-70.324722
bckm_22532,,,,,,,,,,,,,true,42.311106,-71.044449
bckm_22531,,,,,,,,,,,,,true,42.651934,-70.580566
bckm_22530,,,,,,,,,,,,,true,43.122766,-70.729172
bckm_22529,,,,,,,,,,,,,true,43.78055,-70.172501
bckm_22528,,,,,,,,,,,,,true,43.714441,-69.823898
bckm_22527,,,,,,,,,,,,,true,44.079165,-69.773331
bckm_22526,,,,,,,,,,,,,true,43.78583,-69.721939
bckm_22525,,,,,,,,,,,,,true,44.063326,-69.067505
bckm_22524,,,,,,,,,,,,,true,44.579721,-68.795273
bckm_22523,,,,,,,,,,,,,true,44.306383,-68.615829
bckm_22522,,,,,,,,,,,,,true,44.317774,-68.547501
bckm_22521,,,,,,,,,,,,,true,44.418886,-68.559158
bckm_22520,,,,,,,,,,,,,true,44.465883,-68.321152
bckm_22519,,,,,,,,,,,,,true,44.460276,-68.108612
bckm_22518,,,,,,,,,,,,,true,44.346941,-68.047501
bckm_22517,,,,,,,,,,,,,true,44.546946,-67.775284
bckm_22516,,,,,,,,,,,,,true,44.550272,-67.565277
bckm_22515,,,,,,,,,,,,,true,44.666101,-67.551102
bckm_22514,,,,,,,,,,,,,true,44.661936,-67.186935
bckm_22513,,,,,,,,,,,,,true,44.83111,-66.968887
bckm_22512,,,,,,,,,,,,,true,45.183039,-67.206543
bckm_22511,,,,,,,,,,,,,true,45.701105,-67.799164
bckm_22510,,,,,,,,,,,,,true,47.069994,-67.794998
bckm_22509,,,,,,,,,,,,,true,47.471376,-69.232498
bckm_22508,,,,,,,,,,,,,true,45.238604,-70.878601
bckm_22507,,,,,,,,,,,,,true,44.986658,-74.990829
bckm_22506,,,,,,,,,,,,,true,43.633608,-76.801941
bckm_22505,,,,,,,,,,,,,true,43.629435,-78.724716
bckm_22504,,,,,,,,,,,,,true,43.465548,-79.184723
bckm_22503,,,,,,,,,,,,,true,42.819994,-78.986938
bckm_22502,,,,,,,,,,,,,true,41.683878,-82.696655
bckm_22501,,,,,,,,,,,,,true,42.046106,-83.16861
bckm_22500,,,,,,,,,,,,,true,42.618883,-82.521393
bckm_22499,,,,,,,,,,,,,true,43.585268,-82.13028
bckm_22498,,,,,,,,,,,,,true,45.355829,-82.54306
bckm_22497,,,,,,,,,,,,,true,45.827219,-83.597778
bckm_22496,,,,,,,,,,,,,true,46.105272,-83.577499
bckm_22495,,,,,,,,,,,,,true,46.071665,-83.958893
bckm_22494,,,,,,,,,,,,,true,46.531939,-84.126389
bckm_22493,,,,,,,,,,,,,true,46.466387,-84.565002
bckm_22492,,,,,,,,,,,,,true,46.902216,-84.856949
bckm_22491,,,,,,,,,,,,,true,48.312212,-88.368057
bckm_22490,,,,,,,,,,,,,true,47.979715,-89.356659
bckm_22489,,,,,,,,,,,,,true,48.237497,-90.868607
bckm_22488,,,,,,,,,,,,,true,48.041109,-91.418335
bckm_22487,,,,,,,,,,,,,true,48.623323,-92.953064
bckm_22486,,,,,,,,,,,,,true,48.724436,-94.605835
bckm_22485,,,,,,,,,,,,,true,49.359163,-95.078064
bckm_22484,,,,,,,,,,,,,true,48.973879,-123.053329
bckm_22483,,,,,,,,,,,,,true,48.999437,-123.034317
bckm_22482,,,,,,,,,,,,,true,48.999437,-123.09375
bckm_22481,,,,,,,,,,,,,true,48.973879,-123.053329
bckm_22480,,,,,,,,,,,,,true,48.711664,-122.922501
bckm_22479,,,,,,,,,,,,,true,48.603609,-123.010277
bckm_22478,,,,,,,,,,,,,true,48.651384,-122.749161
bckm_22477,,,,,,,,,,,,,true,48.711664,-122.922501
bckm_22476,,,,,,,,,,,,,true,48.4461,-123
bckm_22475,,,,,,,,,,,,,true,48.529718,-122.995003
bckm_22474,,,,,,,,,,,,,true,48.592218,-123.178329
bckm_22473,,,,,,,,,,,,,true,48.4461,-123
bckm_22472,,,,,,,,,,,,,true,48.416941,-122.816673
bckm_22471,,,,,,,,,,,,,true,48.564157,-122.876663
bckm_22470,,,,,,,,,,,,,true,48.457773,-122.936111
bckm_22469,,,,,,,,,,,,,true,48.416941,-122.816673
bckm_22468,,,,,,,,,,,,,true,48.309717,-122.50473
bckm_22467,,,,,,,,,,,,,true,48.233881,-122.757782
bckm_22466,,,,,,,,,,,,,true,47.919443,-122.372223
bckm_22465,,,,,,,,,,,,,true,48.309717,-122.50473
bckm_22464,,,,,,,,,,,,,true,47.349718,-122.482224
bckm_22463,,,,,,,,,,,,,true,47.394716,-122.381104
bckm_22462,,,,,,,,,,,,,true,47.518328,-122.450562
bckm_22461,,,,,,,,,,,,,true,47.349718,-122.482224
bckm_22460,,,,,,,,,,,,,true,47.206942,-122.843063
bckm_22459,,,,,,,,,,,,,true,47.312494,-122.845551
bckm_22458,,,,,,,,,,,,,true,47.297495,-122.902222
bckm_22457,,,,,,,,,,,,,true,47.206942,-122.843063
bckm_22456,,,,,,,,,,,,,true,46.431108,-123.938049
bckm_22455,,,,,,,,,,,,,true,46.515276,-123.972504
bckm_22454,,,,,,,,,,,,,true,46.469156,-123.983063
bckm_22453,,,,,,,,,,,,,true,46.431108,-123.949158
bckm_22452,,,,,,,,,,,,,true,46.431108,-123.938049
bckm_22451,,,,,,,,,,,,,true,44.237215,-68.320847
bckm_22450,,,,,,,,,,,,,true,44.345545,-68.168335
bckm_22449,,,,,,,,,,,,,true,44.452776,-68.263062
bckm_22448,,,,,,,,,,,,,true,44.319994,-68.428329
bckm_22447,,,,,,,,,,,,,true,44.237215,-68.320847
bckm_22446,,,,,,,,,,,,,true,44.168886,-68.650833
bckm_22445,,,,,,,,,,,,,true,44.285273,-68.66806
bckm_22444,,,,,,,,,,,,,true,44.228876,-68.72139
bckm_22443,,,,,,,,,,,,,true,44.168886,-68.650833
bckm_22442,,,,,,,,,,,,,true,44.048052,-68.803329
bckm_22441,,,,,,,,,,,,,true,44.094995,-68.76445
bckm_22440,,,,,,,,,,,,,true,44.12388,-68.898056
bckm_22439,,,,,,,,,,,,,true,44.048052,-68.803329
bckm_22438,,,,,,,,,,,,,true,41.458605,-71.297501
bckm_22437,,,,,,,,,,,,,true,41.654161,-71.222504
bckm_22436,,,,,,,,,,,,,true,41.459162,-71.358337
bckm_22435,,,,,,,,,,,,,true,41.458605,-71.297501
bckm_22434,,,,,,,,,,,,,true,41.357218,-70.506393
bckm_22433,,,,,,,,,,,,,true,41.473879,-70.617218
bckm_22432,,,,,,,,,,,,,true,41.359995,-70.838058
bckm_22431,,,,,,,,,,,,,true,41.357218,-70.506393
bckm_22430,,,,,,,,,,,,,true,41.328051,-69.994995
bckm_22429,,,,,,,,,,,,,true,41.283609,-70.234161
bckm_22428,,,,,,,,,,,,,true,41.250277,-69.993881
bckm_22427,,,,,,,,,,,,,true,41.328051,-69.994995
bckm_22426,,,,,,,,,,,,,true,41.125269,-72.262222
bckm_22425,,,,,,,,,,,,,true,40.625826,-74.032501
bckm_22424,,,,,,,,,,,,,true,40.596102,-73.582779
bckm_22423,,,,,,,,,,,,,true,41.069162,-71.85611
bckm_22422,,,,,,,,,,,,,true,40.91305,-72.621109
bckm_22421,,,,,,,,,,,,,true,41.125269,-72.262222
bckm_22420,,,,,,,,,,,,,true,40.635271,-73.223328
bckm_22419,,,,,,,,,,,,,true,40.766108,-72.766663
bckm_22418,,,,,,,,,,,,,true,40.633883,-73.294724
bckm_22417,,,,,,,,,,,,,true,40.635271,-73.223328
bckm_22416,,,,,,,,,,,,,true,40.511667,-74.220001
bckm_22415,,,,,,,,,,,,,true,40.639437,-74.062775
bckm_22414,,,,,,,,,,,,,true,40.641939,-74.176941
bckm_22413,,,,,,,,,,,,,true,40.511667,-74.220001
bckm_22412,,,,,,,,,,,,,true,39.525553,-74.246948
bckm_22411,,,,,,,,,,,,,true,39.659433,-74.138336
bckm_22410,,,,,,,,,,,,,true,39.750834,-74.099991
bckm_22409,,,,,,,,,,,,,true,39.525553,-74.246948
bckm_22408,,,,,,,,,,,,,true,39.421663,-74.329453
bckm_22407,,,,,,,,,,,,,true,39.474436,-74.348053
bckm_22406,,,,,,,,,,,,,true,39.420744,-74.376251
bckm_22405,,,,,,,,,,,,,true,39.406939,-74.444153
bckm_22404,,,,,,,,,,,,,true,39.382494,-74.394455
bckm_22403,,,,,,,,,,,,,true,39.421663,-74.329453
bckm_22402,,,,,,,,,,,,,true,37.866663,-75.354172
bckm_22401,,,,,,,,,,,,,true,38.263056,-75.121109
bckm_22400,,,,,,,,,,,,,true,37.872217,-75.384171
bckm_22399,,,,,,,,,,,,,true,37.866663,-75.354172
bckm_22398,,,,,,,,,,,,,true,38.055269,-121.801392
bckm_22397,,,,,,,,,,,,,true,38.066668,-121.796387
bckm_22396,,,,,,,,,,,,,true,38.068056,-121.820007
bckm_22395,,,,,,,,,,,,,true,38.055269,-121.801392
bckm_22394,,,,,,,,,,,,,true,37.402773,-75.696655
bckm_22393,,,,,,,,,,,,,true,37.460276,-75.668335
bckm_22392,,,,,,,,,,,,,true,37.390276,-75.710831
bckm_22391,,,,,,,,,,,,,true,37.402773,-75.696655
bckm_22390,,,,,,,,,,,,,true,37.238047,-75.78833
bckm_22389,,,,,,,,,,,,,true,37.298609,-75.785278
bckm_22388,,,,,,,,,,,,,true,37.22777,-75.837509
bckm_22387,,,,,,,,,,,,,true,37.238047,-75.78833
bckm_22386,,,,,,,,,,,,,true,37.112497,-75.906113
bckm_22385,,,,,,,,,,,,,true,37.149164,-75.872498
bckm_22384,,,,,,,,,,,,,true,37.136942,-75.898895
bckm_22383,,,,,,,,,,,,,true,37.112497,-75.906113
bckm_22382,,,,,,,,,,,,,true,35.821383,-75.619446
bckm_22381,,,,,,,,,,,,,true,35.926943,-75.665833
bckm_22380,,,,,,,,,,,,,true,35.94166,-75.723328
bckm_22379,,,,,,,,,,,,,true,35.821383,-75.619446
bckm_22378,,,,,,,,,,,,,true,35.235552,-75.527222
bckm_22377,,,,,,,,,,,,,true,35.777216,-75.512512
bckm_22376,,,,,,,,,,,,,true,35.22555,-75.65361
bckm_22375,,,,,,,,,,,,,true,35.235552,-75.527222
bckm_22374,,,,,,,,,,,,,true,35.074167,-76.010834
bckm_22373,,,,,,,,,,,,,true,35.19388,-75.766953
bckm_22372,,,,,,,,,,,,,true,35.115,-75.98111
bckm_22371,,,,,,,,,,,,,true,35.074167,-76.010834
bckm_22370,,,,,,,,,,,,,true,35.039438,-76.06778
bckm_22369,,,,,,,,,,,,,true,35.061106,-76.039444
bckm_22368,,,,,,,,,,,,,true,35.00194,-76.131104
bckm_22367,,,,,,,,,,,,,true,35.039438,-76.06778
bckm_22366,,,,,,,,,,,,,true,34.585825,-76.531952
bckm_22365,,,,,,,,,,,,,true,34.94166,-76.199722
bckm_22364,,,,,,,,,,,,,true,34.775827,-76.420837
bckm_22363,,,,,,,,,,,,,true,34.585825,-76.531952
bckm_22362,,,,,,,,,,,,,true,34.702219,-76.682495
bckm_22361,,,,,,,,,,,,,true,34.691378,-76.931107
bckm_22360,,,,,,,,,,,,,true,34.650545,-77.098053
bckm_22359,,,,,,,,,,,,,true,34.702219,-76.682495
bckm_22358,,,,,,,,,,,,,true,34.635553,-76.535278
bckm_22357,,,,,,,,,,,,,true,34.664995,-76.559158
bckm_22356,,,,,,,,,,,,,true,34.686106,-76.654724
bckm_22355,,,,,,,,,,,,,true,34.635553,-76.535278
bckm_22354,,,,,,,,,,,,,true,34.084162,-119.868057
bckm_22353,,,,,,,,,,,,,true,33.967211,-119.78833
bckm_22352,,,,,,,,,,,,,true,34.042772,-119.513634
bckm_22351,,,,,,,,,,,,,true,34.084162,-119.868057
bckm_22350,,,,,,,,,,,,,true,34.028605,-120.297783
bckm_22349,,,,,,,,,,,,,true,34.065546,-120.363892
bckm_22348,,,,,,,,,,,,,true,34.036943,-120.438049
bckm_22347,,,,,,,,,,,,,true,34.028605,-120.297783
bckm_22346,,,,,,,,,,,,,true,34.023882,-120.035278
bckm_22345,,,,,,,,,,,,,true,34.006105,-120.226097
bckm_22344,,,,,,,,,,,,,true,33.90555,-120.107498
bckm_22343,,,,,,,,,,,,,true,34.023882,-120.035278
bckm_22342,,,,,,,,,,,,,true,33.85,-77.960831
bckm_22341,,,,,,,,,,,,,true,33.91305,-77.949722
bckm_22340,,,,,,,,,,,,,true,33.874163,-78.016403
bckm_22339,,,,,,,,,,,,,true,33.85,-77.960831
bckm_22338,,,,,,,,,,,,,true,33.309435,-118.301941
bckm_22337,,,,,,,,,,,,,true,33.486658,-118.592215
bckm_22336,,,,,,,,,,,,,true,33.327494,-118.448883
bckm_22335,,,,,,,,,,,,,true,33.309435,-118.301941
bckm_22334,,,,,,,,,,,,,true,33.216661,-119.444153
bckm_22333,,,,,,,,,,,,,true,33.274439,-119.48056
bckm_22332,,,,,,,,,,,,,true,33.28277,-119.566673
bckm_22331,,,,,,,,,,,,,true,33.216661,-119.444153
bckm_22330,,,,,,,,,,,,,true,33.003054,-79.365004
bckm_22329,,,,,,,,,,,,,true,33.067217,-79.336121
bckm_22328,,,,,,,,,,,,,true,33.049997,-79.361115
bckm_22327,,,,,,,,,,,,,true,33.003054,-79.365004
bckm_22326,,,,,,,,,,,,,true,32.816668,-118.406952
bckm_22325,,,,,,,,,,,,,true,32.854715,-118.369164
bckm_22324,,,,,,,,,,,,,true,33.046946,-118.592499
bckm_22323,,,,,,,,,,,,,true,32.816668,-118.406952
bckm_22322,,,,,,,,,,,,,true,30.400831,-86.529175
bckm_22321,,,,,,,,,,,,,true,30.404997,-86.763062
bckm_22320,,,,,,,,,,,,,true,30.332777,-87.292221
bckm_22319,,,,,,,,,,,,,true,30.400831,-86.529175
bckm_22318,,,,,,,,,,,,,true,30.241106,-88.094727
bckm_22317,,,,,,,,,,,,,true,30.273611,-88.107773
bckm_22316,,,,,,,,,,,,,true,30.232775,-88.3125
bckm_22315,,,,,,,,,,,,,true,30.241106,-88.094727
bckm_22314,,,,,,,,,,,,,true,30.19972,-89.081116
bckm_22313,,,,,,,,,,,,,true,30.246675,-89.060516
bckm_22312,,,,,,,,,,,,,true,30.216665,-89.091675
bckm_22311,,,,,,,,,,,,,true,30.19972,-89.081116
bckm_22310,,,,,,,,,,,,,true,30.21472,-88.552216
bckm_22309,,,,,,,,,,,,,true,30.223051,-88.526398
bckm_22308,,,,,,,,,,,,,true,30.244719,-88.754181
bckm_22307,,,,,,,,,,,,,true,30.21472,-88.552216
bckm_22306,,,,,,,,,,,,,true,30.206106,-88.437775
bckm_22305,,,,,,,,,,,,,true,30.212774,-88.428055
bckm_22304,,,,,,,,,,,,,true,30.218885,-88.500565
bckm_22303,,,,,,,,,,,,,true,30.206106,-88.437775
bckm_22302,,,,,,,,,,,,,true,30.040834,-89.31778
bckm_22301,,,,,,,,,,,,,true,30.166666,-89.184998
bckm_22300,,,,,,,,,,,,,true,30.059443,-89.34639
bckm_22299,,,,,,,,,,,,,true,30.040834,-89.31778
bckm_22298,,,,,,,,,,,,,true,29.776388,-88.84584
bckm_22297,,,,,,,,,,,,,true,29.906385,-88.805832
bckm_22296,,,,,,,,,,,,,true,30.060606,-88.868744
bckm_22295,,,,,,,,,,,,,true,29.776388,-88.84584
bckm_22294,,,,,,,,,,,,,true,29.778334,-84.638901
bckm_22293,,,,,,,,,,,,,true,29.819998,-84.573425
bckm_22292,,,,,,,,,,,,,true,29.776945,-84.667221
bckm_22291,,,,,,,,,,,,,true,29.778334,-84.638901
bckm_22290,,,,,,,,,,,,,true,29.771387,-89.285278
bckm_22289,,,,,,,,,,,,,true,29.809164,-89.275558
bckm_22288,,,,,,,,,,,,,true,29.803888,-89.341675
bckm_22287,,,,,,,,,,,,,true,29.771387,-89.285278
bckm_22286,,,,,,,,,,,,,true,29.740831,-89.424164
bckm_22285,,,,,,,,,,,,,true,29.793055,-89.491104
bckm_22284,,,,,,,,,,,,,true,29.73805,-89.488892
bckm_22283,,,,,,,,,,,,,true,29.740831,-89.424164
bckm_22282,,,,,,,,,,,,,true,29.608889,-84.972778
bckm_22281,,,,,,,,,,,,,true,29.758333,-84.692215
bckm_22280,,,,,,,,,,,,,true,29.623888,-85.095001
bckm_22279,,,,,,,,,,,,,true,29.608889,-84.972778
bckm_22278,,,,,,,,,,,,,true,29.692774,-89.428604
bckm_22277,,,,,,,,,,,,,true,29.722773,-89.422501
bckm_22276,,,,,,,,,,,,,true,29.728609,-89.468613
bckm_22275,,,,,,,,,,,,,true,29.692774,-89.428604
bckm_22274,,,,,,,,,,,,,true,29.632219,-85.111115
bckm_22273,,,,,,,,,,,,,true,29.679163,-85.08168
bckm_22272,,,,,,,,,,,,,true,29.685274,-85.198044
bckm_22271,,,,,,,,,,,,,true,29.632219,-85.111115
bckm_22270,,,,,,,,,,,,,true,29.486109,-91.786667
bckm_22269,,,,,,,,,,,,,true,29.634996,-91.856384
bckm_22268,,,,,,,,,,,,,true,29.591665,-92.034439
bckm_22267,,,,,,,,,,,,,true,29.486109,-91.786667
bckm_22266,,,,,,,,,,,,,true,29.521387,-89.080292
bckm_22265,,,,,,,,,,,,,true,29.57361,-89.037216
bckm_22264,,,,,,,,,,,,,true,29.545553,-89.078888
bckm_22263,,,,,,,,,,,,,true,29.521387,-89.080292
bckm_22262,,,,,,,,,,,,,true,29.513887,-89.601105
bckm_22261,,,,,,,,,,,,,true,29.521112,-89.56221
bckm_22260,,,,,,,,,,,,,true,29.55472,-89.565826
bckm_22259,,,,,,,,,,,,,true,29.560556,-89.590286
bckm_22258,,,,,,,,,,,,,true,29.538332,-89.618332
bckm_22257,,,,,,,,,,,,,true,29.513887,-89.601105
bckm_22256,,,,,,,,,,,,,true,29.473051,-89.170546
bckm_22255,,,,,,,,,,,,,true,29.492495,-89.156952
bckm_22254,,,,,,,,,,,,,true,29.46472,-89.219162
bckm_22253,,,,,,,,,,,,,true,29.473051,-89.170546
bckm_22252,,,,,,,,,,,,,true,29.098055,-95.111115
bckm_22251,,,,,,,,,,,,,true,29.308054,-94.784729
bckm_22250,,,,,,,,,,,,,true,29.33861,-94.821396
bckm_22249,,,,,,,,,,,,,true,29.098055,-95.111115
bckm_22248,,,,,,,,,,,,,true,29.310278,-89.860001
bckm_22247,,,,,,,,,,,,,true,29.335276,-89.86972
bckm_22246,,,,,,,,,,,,,true,29.323053,-89.89389
bckm_22245,,,,,,,,,,,,,true,29.310278,-89.860001
bckm_22244,,,,,,,,,,,,,true,29.278612,-89.928329
bckm_22243,,,,,,,,,,,,,true,29.302221,-89.907501
bckm_22242,,,,,,,,,,,,,true,29.2875,-89.935272
bckm_22241,,,,,,,,,,,,,true,29.278612,-89.928329
bckm_22240,,,,,,,,,,,,,true,29.242773,-89.975281
bckm_22239,,,,,,,,,,,,,true,29.268057,-89.955002
bckm_22238,,,,,,,,,,,,,true,29.211943,-90.031113
bckm_22237,,,,,,,,,,,,,true,29.242773,-89.975281
bckm_22236,,,,,,,,,,,,,true,29.057222,-90.335556
bckm_22235,,,,,,,,,,,,,true,29.066942,-90.29834
bckm_22234,,,,,,,,,,,,,true,29.083055,-90.285278
bckm_22233,,,,,,,,,,,,,true,29.057222,-90.335556
bckm_22232,,,,,,,,,,,,,true,29.045,-90.739166
bckm_22231,,,,,,,,,,,,,true,29.073332,-90.642502
bckm_22230,,,,,,,,,,,,,true,29.048609,-90.758347
bckm_22229,,,,,,,,,,,,,true,29.045,-90.739166
bckm_22228,,,,,,,,,,,,,true,29.046133,-90.87265
bckm_22227,,,,,,,,,,,,,true,29.060556,-90.923615
bckm_22226,,,,,,,,,,,,,true,29.060003,-90.950394
bckm_22225,,,,,,,,,,,,,true,29.046133,-90.87265
bckm_22224,,,,,,,,,,,,,true,28.258333,-80.663895
bckm_22223,,,,,,,,,,,,,true,28.590555,-80.625275
bckm_22222,,,,,,,,,,,,,true,28.478331,-80.74028
bckm_22221,,,,,,,,,,,,,true,28.258333,-80.663895
bckm_22220,,,,,,,,,,,,,true,28.402498,-96.360825
bckm_22219,,,,,,,,,,,,,true,28.485552,-96.229996
bckm_22218,,,,,,,,,,,,,true,28.455275,-96.313049
bckm_22217,,,,,,,,,,,,,true,28.402498,-96.360825
bckm_22216,,,,,,,,,,,,,true,28.266668,-96.551941
bckm_22215,,,,,,,,,,,,,true,28.392221,-96.404724
bckm_22214,,,,,,,,,,,,,true,28.092497,-96.813614
bckm_22213,,,,,,,,,,,,,true,28.266668,-96.551941
bckm_22212,,,,,,,,,,,,,true,28.030554,-96.887787
bckm_22211,,,,,,,,,,,,,true,28.134996,-96.867767
bckm_22210,,,,,,,,,,,,,true,27.875277,-97.035828
bckm_22209,,,,,,,,,,,,,true,28.030554,-96.887787
bckm_22208,,,,,,,,,,,,,true,27.218885,-97.382217
bckm_22207,,,,,,,,,,,,,true,27.843889,-97.045546
bckm_22206,,,,,,,,,,,,,true,27.495829,-97.31723
bckm_22205,,,,,,,,,,,,,true,27.218885,-97.382217
bckm_22204,,,,,,,,,,,,,true,27.321112,-82.587509
bckm_22203,,,,,,,,,,,,,true,27.418608,-82.654175
bckm_22202,,,,,,,,,,,,,true,27.425829,-82.680557
bckm_22201,,,,,,,,,,,,,true,27.321112,-82.587509
bckm_22200,,,,,,,,,,,,,true,26.084723,-97.17778
bckm_22199,,,,,,,,,,,,,true,27.20722,-97.383621
bckm_22198,,,,,,,,,,,,,true,26.838224,-97.385757
bckm_22197,,,,,,,,,,,,,true,26.084723,-97.17778
bckm_22196,,,,,,,,,,,,,true,26.716387,-82.263626
bckm_22195,,,,,,,,,,,,,true,26.759443,-82.25528
bckm_22194,,,,,,,,,,,,,true,26.808889,-82.281387
bckm_22193,,,,,,,,,,,,,true,26.716387,-82.263626
bckm_22192,,,,,,,,,,,,,true,26.487776,-82.079453
bckm_22191,,,,,,,,,,,,,true,26.691107,-82.133331
bckm_22190,,,,,,,,,,,,,true,26.699163,-82.179718
bckm_22189,,,,,,,,,,,,,true,26.487776,-82.079453
bckm_22188,,,,,,,,,,,,,true,26.612497,-82.221664
bckm_22187,,,,,,,,,,,,,true,26.698606,-82.255005
bckm_22186,,,,,,,,,,,,,true,26.634996,-82.244995
bckm_22185,,,,,,,,,,,,,true,26.612497,-82.221664
bckm_22184,,,,,,,,,,,,,true,26.449999,-82.126389
bckm_22183,,,,,,,,,,,,,true,26.444998,-82.028885
bckm_22182,,,,,,,,,,,,,true,26.545832,-82.20639
bckm_22181,,,,,,,,,,,,,true,26.449999,-82.126389
bckm_22176,,,,,,,,,,,,,true,25.844721,-81.684158
bckm_22175,,,,,,,,,,,,,true,25.888609,-81.664169
bckm_22174,,,,,,,,,,,,,true,25.888609,-81.714722
bckm_22173,,,,,,,,,,,,,true,25.844721,-81.684158
bckm_22168,,,,,,,,,,,,,true,25.669443,-80.162216
bckm_22167,,,,,,,,,,,,,true,25.733332,-80.156387
bckm_22166,,,,,,,,,,,,,true,25.68944,-80.185547
bckm_22165,,,,,,,,,,,,,true,25.669443,-80.162216
bckm_22164,,,,,,,,,,,,,true,25.40111,-80.225006
bckm_22163,,,,,,,,,,,,,true,25.494162,-80.188599
bckm_22162,,,,,,,,,,,,,true,25.40222,-80.234161
bckm_22161,,,,,,,,,,,,,true,25.40111,-80.225006
bckm_22160,,,,,,,,,,,,,true,24.945551,-80.577225
bckm_22159,,,,,,,,,,,,,true,25.143888,-80.371933
bckm_22158,,,,,,,,,,,,,true,25.346388,-80.257507
bckm_22157,,,,,,,,,,,,,true,24.945551,-80.577225
bckm_22152,,,,,,,,,,,,,true,24.90222,-80.646666
bckm_22151,,,,,,,,,,,,,true,24.932775,-80.623886
bckm_22150,,,,,,,,,,,,,true,24.894999,-80.664444
bckm_22149,,,,,,,,,,,,,true,24.90222,-80.646666
bckm_22148,,,,,,,,,,,,,true,24.866667,-80.698608
bckm_22147,,,,,,,,,,,,,true,24.880831,-80.702499
bckm_22146,,,,,,,,,,,,,true,24.842497,-80.745834
bckm_22145,,,,,,,,,,,,,true,24.866667,-80.698608
bckm_22144,,,,,,,,,,,,,true,24.797499,-80.846115
bckm_22143,,,,,,,,,,,,,true,24.822931,-80.786171
bckm_22142,,,,,,,,,,,,,true,24.821112,-80.824173
bckm_22141,,,,,,,,,,,,,true,24.797499,-80.846115
bckm_22140,,,,,,,,,,,,,true,24.742773,-80.968887
bckm_22139,,,,,,,,,,,,,true,24.769209,-80.923462
bckm_22138,,,,,,,,,,,,,true,24.718588,-81.026688
bckm_22137,,,,,,,,,,,,,true,24.742773,-80.968887
bckm_22136,,,,,,,,,,,,,true,24.629721,-81.349442
bckm_22135,,,,,,,,,,,,,true,24.70083,-81.360825
bckm_22134,,,,,,,,,,,,,true,24.748606,-81.428055
bckm_22133,,,,,,,,,,,,,true,24.629721,-81.349442
bckm_22132,,,,,,,,,,,,,true,24.706106,-81.108612
bckm_22131,,,,,,,,,,,,,true,24.716532,-81.052673
bckm_22130,,,,,,,,,,,,,true,24.701681,-81.137772
bckm_22129,,,,,,,,,,,,,true,24.706106,-81.108612
bckm_22128,,,,,,,,,,,,,true,24.589998,-81.588333
bckm_22127,,,,,,,,,,,,,true,24.629999,-81.508347
bckm_22126,,,,,,,,,,,,,true,24.68722,-81.553055
bckm_22125,,,,,,,,,,,,,true,24.589998,-81.588333
bckm_22124,,,,,,,,,,,,,true,24.636385,-81.477219
bckm_22123,,,,,,,,,,,,,true,24.677774,-81.478607
bckm_22122,,,,,,,,,,,,,true,24.684996,-81.517775
bckm_22121,,,,,,,,,,,,,true,24.636385,-81.477219
bckm_22120,,,,,,,,,,,,,true,24.553118,-81.715118
bckm_22119,,,,,,,,,,,,,true,24.577551,-81.646225
bckm_22118,,,,,,,,,,,,,true,24.59572,-81.710739
bckm_22117,,,,,,,,,,,,,true,24.553118,-81.715118
bckm_22116,,,,,,,,,,,,,true,24.545832,-82.114441
bckm_22115,,,,,,,,,,,,,true,24.583055,-82.099991
bckm_22114,,,,,,,,,,,,,true,24.593889,-82.137222
bckm_22113,,,,,,,,,,,,,true,24.545832,-82.114441
bckm_22112,,,,,,,,,,,,,true,24.544722,-81.773895
bckm_22111,,,,,,,,,,,,,true,24.560556,-81.729172
bckm_22110,,,,,,,,,,,,,true,24.543871,-81.813499
bckm_22109,,,,,,,,,,,,,true,24.544722,-81.773895
bckm_22060,,,,,,,,,,,,,true,19.887499,-75.121399
bckm_22059,,,,,,,,,,,,,true,19.893042,-75.085281
bckm_22058,,,,,,,,,,,,,true,19.962873,-75.13974
bckm_22057,,,,,,,,,,,,,true,19.887499,-75.121399
bckm_22056,,,,,,,,,,,,,true,19.931391,-75.170288
bckm_22055,,,,,,,,,,,,,true,19.960695,-75.15918
bckm_22054,,,,,,,,,,,,,true,19.901556,-75.223724
bckm_22053,,,,,,,,,,,,,true,19.931391,-75.170288
